{"type": "FeatureCollection", "features": [{"type": "Feature", "properties": {"stand_id": "CEN-00061", "licence_block": "LB-F", "area_ha": 693.1524038657828, "stand_source": "synthetic", "forest_class": "softwood", "class_confidence": 0.818, "is_trusted": true, "valid_pixel_fraction": 0.7252493922374046, "requires_review": false, "change_type": "none", "validation_status": null, "period_end": "2026-08-31", "coverage_status": "retained", "map_class": "softwood", "colour_hex": "#1B7F4B"}, "geometry": {"type": "Polygon", "coordinates": [[[-66.8091272702515, 46.26997981635419], [-66.81751414451568, 46.28490768739137], [-66.84182838503146, 46.287848441991294], [-66.85006331583446, 46.27336914302423], [-66.83920255326008, 46.2613052214012], [-66.81817994851647, 46.260643076160775], [-66.8091272702515, 46.26997981635419]]]}}, {"type": "Feature", "properties": {"stand_id": "CEN-00062", "licence_block": "LB-E", "area_ha": 767.5204762318427, "stand_source": "synthetic", "forest_class": "softwood", "class_confidence": 0.833, "is_trusted": true, "valid_pixel_fraction": 0.7695577208388468, "requires_review": false, "change_type": "none", "validation_status": "stubbed", "period_end": "2026-08-31", "coverage_status": "retained", "map_class": "softwood", "colour_hex": "#1B7F4B"}, "geometry": {"type": "Polygon", "coordinates": [[[-66.77045267046219, 46.2741901514583], [-66.77996819178863, 46.28750857995833], [-66.80432156703235, 46.28622462291], [-66.81285551136801, 46.269851318907044], [-66.80458328292819, 46.25977968041837], [-66.7806347875232, 46.260073060744524], [-66.77045267046219, 46.2741901514583]]]}}, {"type": "Feature", "properties": {"stand_id": "CEN-00063", "licence_block": "LB-D", "area_ha": 612.6966684557491, "stand_source": "synthetic", "forest_class": "softwood", "class_confidence": 0.718, "is_trusted": true, "valid_pixel_fraction": 0.7550979905730588, "requires_review": false, "change_type": "none", "validation_status": null, "period_end": "2026-08-31", "coverage_status": "retained", "map_class": "softwood", "colour_hex": "#1B7F4B"}, "geometry": {"type": "Polygon", "coordinates": [[[-66.73968813218805, 46.27614712929483], [-66.74613337763996, 46.28704492604276], [-66.76853174651762, 46.28429876067577], [-66.77598796719181, 46.2730828454225], [-66.76830528714592, 46.26173737315515], [-66.74590154884345, 46.26082402335307], [-66.73968813218805, 46.27614712929483]]]}}, {"type": "Feature", "properties": {"stand_id": "CEN-00064", "licence_block": "LB-C", "area_ha": 645.3697998321918, "stand_source": "synthetic", "forest_class": "softwood", "class_confidence": 0.745, "is_trusted": true, "valid_pixel_fraction": 0.7500946073793756, "requires_review": false, "change_type": "none", "validation_status": null, "period_end": "2026-08-31", "coverage_status": "retained", "map_class": "softwood", "colour_hex": "#1B7F4B"}, "geometry": {"type": "Polygon", "coordinates": [[[-66.70142161029146, 46.277001678928215], [-66.71147552681792, 46.286947227023134], [-66.7322579624561, 46.286623916682466], [-66.73765052773119, 46.27489267585559], [-66.72968907978283, 46.26058182912672], [-66.70987707145096, 46.25978299770246], [-66.70142161029146, 46.277001678928215]]]}}, {"type": "Feature", "properties": {"stand_id": "CEN-00065", "licence_block": "LB-D", "area_ha": 558.9211032720822, "stand_source": "synthetic", "forest_class": "softwood", "class_confidence": 0.725, "is_trusted": true, "valid_pixel_fraction": 0.7345698752798209, "requires_review": false, "change_type": "none", "validation_status": null, "period_end": "2026-08-31", "coverage_status": "retained", "map_class": "softwood", "colour_hex": "#1B7F4B"}, "geometry": {"type": "Polygon", "coordinates": [[[-66.66481984555423, 46.27668792839654], [-66.67338507876872, 46.284978508117995], [-66.69670683397848, 46.2841206703096], [-66.70616606278921, 46.2727790433886], [-66.69631322173583, 46.26371907931491], [-66.67565925117258, 46.26399598489475], [-66.66481984555423, 46.27668792839654]]]}}, {"type": "Feature", "properties": {"stand_id": "CEN-00066", "licence_block": "LB-A", "area_ha": 669.7924699715102, "stand_source": "synthetic", "forest_class": "softwood", "class_confidence": 0.698, "is_trusted": true, "valid_pixel_fraction": 0.7210453801773874, "requires_review": false, "change_type": "harvest", "validation_status": null, "period_end": "2026-08-31", "coverage_status": "retained", "map_class": "softwood", "colour_hex": "#1B7F4B"}, "geometry": {"type": "Polygon", "coordinates": [[[-66.59129618144941, 46.27452909862315], [-66.60283621378936, 46.285888293382044], [-66.62430535791717, 46.28798878259082], [-66.6322693199334, 46.2728205751564], [-66.62205062583847, 46.26152709463616], [-66.60141382639823, 46.26192622184322], [-66.59129618144941, 46.27452909862315]]]}}, {"type": "Feature", "properties": {"stand_id": "CEN-00067", "licence_block": "LB-A", "area_ha": 661.3750881319344, "stand_source": "synthetic", "forest_class": "softwood", "class_confidence": 0.666, "is_trusted": true, "valid_pixel_fraction": 0.7110853113175094, "requires_review": false, "change_type": "none", "validation_status": null, "period_end": "2026-08-31", "coverage_status": "retained", "map_class": "softwood", "colour_hex": "#1B7F4B"}, "geometry": {"type": "Polygon", "coordinates": [[[-66.5556559671775, 46.273056474263385], [-66.56578892616204, 46.28691788086123], [-66.58834115944607, 46.28499098771586], [-66.59513118274361, 46.27116983562879], [-66.58274844471696, 46.260727684655954], [-66.566089905862, 46.259317464653186], [-66.5556559671775, 46.273056474263385]]]}}, {"type": "Feature", "properties": {"stand_id": "CEN-00068", "licence_block": "LB-E", "area_ha": 691.6132232077372, "stand_source": "synthetic", "forest_class": "softwood", "class_confidence": 0.633, "is_trusted": true, "valid_pixel_fraction": 0.7244239631336405, "requires_review": false, "change_type": "none", "validation_status": null, "period_end": "2026-08-31", "coverage_status": "retained", "map_class": "softwood", "colour_hex": "#1B7F4B"}, "geometry": {"type": "Polygon", "coordinates": [[[-66.52255342949483, 46.275956176987776], [-66.52979510000452, 46.283547881751666], [-66.55169085023458, 46.28690573249227], [-66.56256772811926, 46.27115811492205], [-66.5521731627438, 46.25890327898144], [-66.52831999087624, 46.2606661109196], [-66.52255342949483, 46.275956176987776]]]}}, {"type": "Feature", "properties": {"stand_id": "CEN-00069", "licence_block": "LB-B", "area_ha": 707.4599811252186, "stand_source": "synthetic", "forest_class": "softwood", "class_confidence": 0.771, "is_trusted": true, "valid_pixel_fraction": 0.7076030412164867, "requires_review": false, "change_type": "none", "validation_status": null, "period_end": "2026-08-31", "coverage_status": "retained", "map_class": "softwood", "colour_hex": "#1B7F4B"}, "geometry": {"type": "Polygon", "coordinates": [[[-66.4828980282892, 46.27466282154976], [-66.49229517135905, 46.284991907452735], [-66.51146304176318, 46.286177658171624], [-66.52705042505941, 46.273037389741404], [-66.51610542164285, 46.259719382008576], [-66.4938830816626, 46.26056006671448], [-66.4828980282892, 46.27466282154976]]]}}, {"type": "Feature", "properties": {"stand_id": "CEN-00070", "licence_block": "LB-B", "area_ha": 598.2761440733667, "stand_source": "synthetic", "forest_class": "softwood", "class_confidence": 0.58, "is_trusted": true, "valid_pixel_fraction": 0.6849358974358974, "requires_review": true, "change_type": "disturbance", "validation_status": "stubbed", "period_end": "2026-08-31", "coverage_status": "retained", "map_class": "softwood", "colour_hex": "#1B7F4B"}, "geometry": {"type": "Polygon", "coordinates": [[[-66.44882848433221, 46.2749569876309], [-66.45953767491669, 46.28647506482858], [-66.47630613463429, 46.28521219968871], [-66.48528316454889, 46.27381565327006], [-66.48019841034527, 46.26333853665214], [-66.45940533450506, 46.25837949280022], [-66.44882848433221, 46.2749569876309]]]}}, {"type": "Feature", "properties": {"stand_id": "CEN-00071", "licence_block": "LB-A", "area_ha": 600.8407016476147, "stand_source": "synthetic", "forest_class": "softwood", "class_confidence": 0.896, "is_trusted": true, "valid_pixel_fraction": 0.682983682983683, "requires_review": false, "change_type": "harvest", "validation_status": null, "period_end": "2026-08-31", "coverage_status": "retained", "map_class": "softwood", "colour_hex": "#1B7F4B"}, "geometry": {"type": "Polygon", "coordinates": [[[-66.82889891020693, 46.2969476059831], [-66.83476358229959, 46.30458360117974], [-66.85709773171791, 46.308204432975195], [-66.86791306432185, 46.29362419946569], [-66.85473668122057, 46.2836620276696], [-66.83519593276888, 46.28253908431986], [-66.82889891020693, 46.2969476059831]]]}}, {"type": "Feature", "properties": {"stand_id": "CEN-00072", "licence_block": "LB-B", "area_ha": 744.4366692379547, "stand_source": "synthetic", "forest_class": "softwood", "class_confidence": 0.85, "is_trusted": true, "valid_pixel_fraction": 0.6645982783357245, "requires_review": false, "change_type": "harvest", "validation_status": "stubbed", "period_end": "2026-08-31", "coverage_status": "retained", "map_class": "softwood", "colour_hex": "#1B7F4B"}, "geometry": {"type": "Polygon", "coordinates": [[[-66.78872841090931, 46.29352009714547], [-66.80288042422784, 46.308354374806775], [-66.81622822702188, 46.30976863380426], [-66.83128273626248, 46.29564038394555], [-66.82017676194988, 46.28102088077112], [-66.79813699442319, 46.2793215484625], [-66.78872841090931, 46.29352009714547]]]}}, {"type": "Feature", "properties": {"stand_id": "CEN-00073", "licence_block": "LB-B", "area_ha": 569.0850502189681, "stand_source": "synthetic", "forest_class": "softwood", "class_confidence": 0.841, "is_trusted": true, "valid_pixel_fraction": 0.6969787318624527, "requires_review": false, "change_type": "none", "validation_status": null, "period_end": "2026-08-31", "coverage_status": "retained", "map_class": "softwood", "colour_hex": "#1B7F4B"}, "geometry": {"type": "Polygon", "coordinates": [[[-66.75461478634158, 46.29442287248292], [-66.76124418728229, 46.30627027885946], [-66.78097966210265, 46.307297796608495], [-66.79537212096893, 46.29366278709681], [-66.78066034858168, 46.28394575536517], [-66.76634103291511, 46.28394232057146], [-66.75461478634158, 46.29442287248292]]]}}, {"type": "Feature", "properties": {"stand_id": "CEN-00074", "licence_block": "LB-C", "area_ha": 600.293272475525, "stand_source": "synthetic", "forest_class": "softwood", "class_confidence": 0.758, "is_trusted": true, "valid_pixel_fraction": 0.6404109589041096, "requires_review": true, "change_type": "disturbance", "validation_status": "stubbed", "period_end": "2026-08-31", "coverage_status": "retained", "map_class": "softwood", "colour_hex": "#1B7F4B"}, "geometry": {"type": "Polygon", "coordinates": [[[-66.71818106503972, 46.29455056745703], [-66.73272124459012, 46.30917160398358], [-66.74708391570947, 46.30540123719176], [-66.76002793399469, 46.29435036547948], [-66.74841769090051, 46.28357255489075], [-66.72997818621694, 46.282859555733474], [-66.71818106503972, 46.29455056745703]]]}}, {"type": "Feature", "properties": {"stand_id": "CEN-00075", "licence_block": "LB-A", "area_ha": 634.5038538055079, "stand_source": "synthetic", "forest_class": "softwood", "class_confidence": 0.654, "is_trusted": true, "valid_pixel_fraction": 0.7111618945198728, "requires_review": false, "change_type": "none", "validation_status": null, "period_end": "2026-08-31", "coverage_status": "retained", "map_class": "softwood", "colour_hex": "#1B7F4B"}, "geometry": {"type": "Polygon", "coordinates": [[[-66.68025396494284, 46.29503659009805], [-66.69320190501773, 46.30688305031219], [-66.71432307454658, 46.304834164960795], [-66.72513165959717, 46.2952620976424], [-66.71288509104508, 46.28387135627702], [-66.68965049792232, 46.28370847736525], [-66.68025396494284, 46.29503659009805]]]}}, {"type": "Feature", "properties": {"stand_id": "CEN-00031", "licence_block": "LB-D", "area_ha": 666.0303539689666, "stand_source": "synthetic", "forest_class": "softwood", "class_confidence": 0.764, "is_trusted": true, "valid_pixel_fraction": 0.6388185654008439, "requires_review": false, "change_type": "none", "validation_status": null, "period_end": "2026-08-31", "coverage_status": "retained", "map_class": "softwood", "colour_hex": "#1B7F4B"}, "geometry": {"type": "Polygon", "coordinates": [[[-66.73684174153563, 46.186208663329744], [-66.74834455510376, 46.19960251897827], [-66.76037419563755, 46.200912406636206], [-66.77961465489878, 46.1866913488713], [-66.76961101078193, 46.17676880465198], [-66.74559652957254, 46.172417559147796], [-66.73684174153563, 46.186208663329744]]]}}, {"type": "Feature", "properties": {"stand_id": "CEN-00032", "licence_block": "LB-E", "area_ha": 612.4052079334413, "stand_source": "synthetic", "forest_class": "softwood", "class_confidence": 0.795, "is_trusted": true, "valid_pixel_fraction": 0.6920957542908762, "requires_review": false, "change_type": "none", "validation_status": null, "period_end": "2026-08-31", "coverage_status": "retained", "map_class": "softwood", "colour_hex": "#1B7F4B"}, "geometry": {"type": "Polygon", "coordinates": [[[-66.70005025130396, 46.1869087871436], [-66.70529173288766, 46.197691508303436], [-66.72594561250341, 46.201417524298876], [-66.74253514214637, 46.18606971762231], [-66.72963578340818, 46.17699761940146], [-66.70815913078269, 46.17777119462429], [-66.70005025130396, 46.1869087871436]]]}}, {"type": "Feature", "properties": {"stand_id": "CEN-00033", "licence_block": "LB-B", "area_ha": 637.8722946056599, "stand_source": "synthetic", "forest_class": "softwood", "class_confidence": 0.837, "is_trusted": true, "valid_pixel_fraction": 0.7536382536382537, "requires_review": false, "change_type": "none", "validation_status": null, "period_end": "2026-08-31", "coverage_status": "retained", "map_class": "softwood", "colour_hex": "#1B7F4B"}, "geometry": {"type": "Polygon", "coordinates": [[[-66.66464366029282, 46.18694572617042], [-66.669483244647, 46.200862962657354], [-66.69390912888286, 46.19902237122198], [-66.70175214474101, 46.187189371339315], [-66.69685190494428, 46.177814650326766], [-66.67088355298499, 46.17429903757176], [-66.66464366029282, 46.18694572617042]]]}}, {"type": "Feature", "properties": {"stand_id": "CEN-00034", "licence_block": "LB-D", "area_ha": 859.4709801480127, "stand_source": "synthetic", "forest_class": "softwood", "class_confidence": 0.813, "is_trusted": true, "valid_pixel_fraction": 0.6713205897051474, "requires_review": true, "change_type": "disturbance", "validation_status": "stubbed", "period_end": "2026-08-31", "coverage_status": "retained", "map_class": "softwood", "colour_hex": "#1B7F4B"}, "geometry": {"type": "Polygon", "coordinates": [[[-66.62433840220532, 46.188050487768024], [-66.63769930698876, 46.2024327181926], [-66.65972324870002, 46.19898295542984], [-66.67215179091444, 46.18760532107114], [-66.66294511062166, 46.17474152698368], [-66.63719274899758, 46.17110963752388], [-66.62433840220532, 46.188050487768024]]]}}, {"type": "Feature", "properties": {"stand_id": "CEN-00035", "licence_block": "LB-C", "area_ha": 677.7611806008582, "stand_source": "synthetic", "forest_class": "softwood", "class_confidence": 0.64, "is_trusted": true, "valid_pixel_fraction": 0.6374387947269303, "requires_review": false, "change_type": "harvest", "validation_status": null, "period_end": "2026-08-31", "coverage_status": "retained", "map_class": "softwood", "colour_hex": "#1B7F4B"}, "geometry": {"type": "Polygon", "coordinates": [[[-66.58553735781226, 46.184154350626855], [-66.60385185499489, 46.19883984464159], [-66.62186305402423, 46.20089648854613], [-66.63140666876551, 46.18690114035724], [-66.62092535710376, 46.17577759561429], [-66.6045836873085, 46.17389814428931], [-66.58553735781226, 46.184154350626855]]]}}, {"type": "Feature", "properties": {"stand_id": "CEN-00036", "licence_block": "LB-D", "area_ha": 673.387478298461, "stand_source": "synthetic", "forest_class": "softwood", "class_confidence": 0.64, "is_trusted": true, "valid_pixel_fraction": 0.6644181459566075, "requires_review": false, "change_type": "harvest", "validation_status": null, "period_end": "2026-08-31", "coverage_status": "retained", "map_class": "softwood", "colour_hex": "#1B7F4B"}, "geometry": {"type": "Polygon", "coordinates": [[[-66.5555898647715, 46.1873066442683], [-66.5628807107226, 46.20197207678965], [-66.58686125719247, 46.197578083667786], [-66.59467468643528, 46.18732248369867], [-66.58386094202284, 46.17143243434885], [-66.5661855759261, 46.175552570841546], [-66.5555898647715, 46.1873066442683]]]}}, {"type": "Feature", "properties": {"stand_id": "CEN-00037", "licence_block": "LB-A", "area_ha": 636.7924688055778, "stand_source": "synthetic", "forest_class": "softwood", "class_confidence": 0.716, "is_trusted": true, "valid_pixel_fraction": 0.7490589121023904, "requires_review": false, "change_type": "harvest", "validation_status": null, "period_end": "2026-08-31", "coverage_status": "retained", "map_class": "softwood", "colour_hex": "#1B7F4B"}, "geometry": {"type": "Polygon", "coordinates": [[[-66.48579524248404, 46.186972760278046], [-66.4904469580233, 46.19982574685798], [-66.5118087408477, 46.19805677662867], [-66.52161493321832, 46.186355553924564], [-66.51163609743689, 46.17368962281797], [-66.49004581723285, 46.172070777177424], [-66.48579524248404, 46.186972760278046]]]}}, {"type": "Feature", "properties": {"stand_id": "CEN-00038", "licence_block": "LB-B", "area_ha": 657.6337953036266, "stand_source": "synthetic", "forest_class": "softwood", "class_confidence": 0.646, "is_trusted": true, "valid_pixel_fraction": 0.7132509217089569, "requires_review": false, "change_type": "harvest", "validation_status": null, "period_end": "2026-08-31", "coverage_status": "retained", "map_class": "softwood", "colour_hex": "#1B7F4B"}, "geometry": {"type": "Polygon", "coordinates": [[[-66.44698322274158, 46.18623213339493], [-66.45933062480538, 46.198179364479095], [-66.47725677477594, 46.198528374562535], [-66.48812124182645, 46.18504855359664], [-66.4815639175263, 46.17397450271085], [-66.45992997432612, 46.17244564371344], [-66.44698322274158, 46.18623213339493]]]}}, {"type": "Feature", "properties": {"stand_id": "CEN-00039", "licence_block": "LB-F", "area_ha": 601.2595227793618, "stand_source": "synthetic", "forest_class": "softwood", "class_confidence": 0.854, "is_trusted": true, "valid_pixel_fraction": 0.6965344699777613, "requires_review": false, "change_type": "none", "validation_status": null, "period_end": "2026-08-31", "coverage_status": "retained", "map_class": "softwood", "colour_hex": "#1B7F4B"}, "geometry": {"type": "Polygon", "coordinates": [[[-66.75563913337929, 46.20760501975994], [-66.76233302285134, 46.221011246519595], [-66.78602620118446, 46.21944634560884], [-66.79253146503413, 46.20873790775092], [-66.78061299366945, 46.197113727877074], [-66.7642500094808, 46.19372934332687], [-66.75563913337929, 46.20760501975994]]]}}, {"type": "Feature", "properties": {"stand_id": "CEN-00040", "licence_block": "LB-D", "area_ha": 710.9502285160348, "stand_source": "synthetic", "forest_class": "softwood", "class_confidence": 0.884, "is_trusted": true, "valid_pixel_fraction": 0.6805114267120927, "requires_review": false, "change_type": "harvest", "validation_status": "stubbed", "period_end": "2026-08-31", "coverage_status": "retained", "map_class": "softwood", "colour_hex": "#1B7F4B"}, "geometry": {"type": "Polygon", "coordinates": [[[-66.71585927097321, 46.20778241135534], [-66.72958554483748, 46.221475264203434], [-66.7493414769149, 46.21990777334659], [-66.76073785564178, 46.21055949225875], [-66.74689578291633, 46.19419605122023], [-66.72719319569698, 46.19577387846873], [-66.71585927097321, 46.20778241135534]]]}}, {"type": "Feature", "properties": {"stand_id": "CEN-00041", "licence_block": "LB-E", "area_ha": 679.723007255206, "stand_source": "synthetic", "forest_class": "softwood", "class_confidence": 0.744, "is_trusted": true, "valid_pixel_fraction": 0.6799663501982934, "requires_review": false, "change_type": "none", "validation_status": null, "period_end": "2026-08-31", "coverage_status": "retained", "map_class": "softwood", "colour_hex": "#1B7F4B"}, "geometry": {"type": "Polygon", "coordinates": [[[-66.61024732348936, 46.207501857944045], [-66.61855947242074, 46.21953874708334], [-66.63909418353873, 46.22379663253131], [-66.65144675173488, 46.209207808191145], [-66.64083811168787, 46.195452824522604], [-66.61910843903244, 46.19739029283307], [-66.61024732348936, 46.207501857944045]]]}}, {"type": "Feature", "properties": {"stand_id": "CEN-00042", "licence_block": "LB-D", "area_ha": 656.2660098213424, "stand_source": "synthetic", "forest_class": "softwood", "class_confidence": 0.707, "is_trusted": true, "valid_pixel_fraction": 0.7156031468531469, "requires_review": false, "change_type": "none", "validation_status": null, "period_end": "2026-08-31", "coverage_status": "retained", "map_class": "softwood", "colour_hex": "#1B7F4B"}, "geometry": {"type": "Polygon", "coordinates": [[[-66.5701252767236, 46.20825956537872], [-66.58335232498258, 46.2203568526076], [-66.60493518054928, 46.21980659450672], [-66.61174210010603, 46.20576150307117], [-66.60581846793905, 46.194700500840604], [-66.58782301245, 46.19539163811278], [-66.5701252767236, 46.20825956537872]]]}}, {"type": "Feature", "properties": {"stand_id": "CEN-00043", "licence_block": "LB-E", "area_ha": 608.3593654619691, "stand_source": "synthetic", "forest_class": "softwood", "class_confidence": 0.75, "is_trusted": true, "valid_pixel_fraction": 0.6005921831819976, "requires_review": false, "change_type": "harvest", "validation_status": null, "period_end": "2026-08-31", "coverage_status": "retained", "map_class": "softwood", "colour_hex": "#1B7F4B"}, "geometry": {"type": "Polygon", "coordinates": [[[-66.50112179225606, 46.20908745844746], [-66.51328874671601, 46.21971803648455], [-66.52928297112156, 46.2218385629514], [-66.54523306335467, 46.21031179793602], [-66.5288742167504, 46.19496402099461], [-66.51078479271837, 46.200946021390116], [-66.50112179225606, 46.20908745844746]]]}}, {"type": "Feature", "properties": {"stand_id": "CEN-00044", "licence_block": "LB-E", "area_ha": 663.9480515525192, "stand_source": "synthetic", "forest_class": "softwood", "class_confidence": 0.58, "is_trusted": true, "valid_pixel_fraction": 0.7187878787878788, "requires_review": false, "change_type": "none", "validation_status": null, "period_end": "2026-08-31", "coverage_status": "retained", "map_class": "softwood", "colour_hex": "#1B7F4B"}, "geometry": {"type": "Polygon", "coordinates": [[[-66.46562772739303, 46.21056364935721], [-66.47224589670336, 46.22353128804676], [-66.49581240774488, 46.221117651666546], [-66.50181817988936, 46.208084542868214], [-66.49300777603634, 46.19683077266506], [-66.47432621729334, 46.19375354154718], [-66.46562772739303, 46.21056364935721]]]}}, {"type": "Feature", "properties": {"stand_id": "CEN-00045", "licence_block": "LB-F", "area_ha": 714.9763052462031, "stand_source": "synthetic", "forest_class": "softwood", "class_confidence": 0.717, "is_trusted": true, "valid_pixel_fraction": 0.6558327219369039, "requires_review": false, "change_type": "harvest", "validation_status": "stubbed", "period_end": "2026-08-31", "coverage_status": "retained", "map_class": "softwood", "colour_hex": "#1B7F4B"}, "geometry": {"type": "Polygon", "coordinates": [[[-66.42334494009903, 46.20724040758474], [-66.44085522141287, 46.222596848584885], [-66.45987777647285, 46.22044779301489], [-66.47219206432233, 46.2107685215375], [-66.45809518122138, 46.19683551277935], [-66.44077620156241, 46.19654139034745], [-66.42334494009903, 46.20724040758474]]]}}, {"type": "Feature", "properties": {"stand_id": "CEN-00046", "licence_block": "LB-E", "area_ha": 644.8105562810072, "stand_source": "synthetic", "forest_class": "softwood", "class_confidence": 0.817, "is_trusted": true, "valid_pixel_fraction": 0.6971885813148789, "requires_review": true, "change_type": "disturbance", "validation_status": "stubbed", "period_end": "2026-08-31", "coverage_status": "retained", "map_class": "softwood", "colour_hex": "#1B7F4B"}, "geometry": {"type": "Polygon", "coordinates": [[[-66.8058150506973, 46.22862641826323], [-66.82016172291453, 46.240886904993864], [-66.83834411873914, 46.24180147161899], [-66.85013896490398, 46.229737341075825], [-66.83406967133108, 46.21748584916193], [-66.81481935715344, 46.217241143272], [-66.8058150506973, 46.22862641826323]]]}}, {"type": "Feature", "properties": {"stand_id": "CEN-00047", "licence_block": "LB-D", "area_ha": 591.3438056215869, "stand_source": "synthetic", "forest_class": "softwood", "class_confidence": 0.824, "is_trusted": true, "valid_pixel_fraction": 0.7352721849366145, "requires_review": false, "change_type": "none", "validation_status": null, "period_end": "2026-08-31", "coverage_status": "retained", "map_class": "softwood", "colour_hex": "#1B7F4B"}, "geometry": {"type": "Polygon", "coordinates": [[[-66.77341632388494, 46.2294616867233], [-66.78217894272424, 46.24149113559542], [-66.80398293777208, 46.241153905268824], [-66.81228157561787, 46.229099278567915], [-66.80367324430578, 46.21712428076505], [-66.78342787226555, 46.21942358738028], [-66.77341632388494, 46.2294616867233]]]}}, {"type": "Feature", "properties": {"stand_id": "CEN-00048", "licence_block": "LB-A", "area_ha": 646.961190476611, "stand_source": "synthetic", "forest_class": "softwood", "class_confidence": 0.54, "is_trusted": true, "valid_pixel_fraction": 0.6315810029682862, "requires_review": false, "change_type": "none", "validation_status": null, "period_end": "2026-08-31", "coverage_status": "retained", "map_class": "softwood", "colour_hex": "#1B7F4B"}, "geometry": {"type": "Polygon", "coordinates": [[[-66.69725578038805, 46.23401598387207], [-66.70819884324727, 46.24170616125286], [-66.72888480776368, 46.24268294871141], [-66.74211413079388, 46.22909073897062], [-66.7249513121674, 46.2160280269961], [-66.71288848303973, 46.218597939910666], [-66.69725578038805, 46.23401598387207]]]}}, {"type": "Feature", "properties": {"stand_id": "CEN-00049", "licence_block": "LB-A", "area_ha": 665.8112093520974, "stand_source": "synthetic", "forest_class": "softwood", "class_confidence": 0.528, "is_trusted": true, "valid_pixel_fraction": 0.7510940672230995, "requires_review": false, "change_type": "none", "validation_status": null, "period_end": "2026-08-31", "coverage_status": "retained", "map_class": "softwood", "colour_hex": "#1B7F4B"}, "geometry": {"type": "Polygon", "coordinates": [[[-66.66495901146519, 46.228881342754946], [-66.67429373981699, 46.242394261133185], [-66.69729818897454, 46.24135171998304], [-66.7050171998161, 46.22899607225248], [-66.69506710942954, 46.21667081112041], [-66.67486666280959, 46.21675294188647], [-66.66495901146519, 46.228881342754946]]]}}, {"type": "Feature", "properties": {"stand_id": "CEN-00050", "licence_block": "LB-E", "area_ha": 689.6159906954207, "stand_source": "synthetic", "forest_class": "softwood", "class_confidence": 0.75, "is_trusted": true, "valid_pixel_fraction": 0.6891908091908092, "requires_review": false, "change_type": "none", "validation_status": null, "period_end": "2026-08-31", "coverage_status": "retained", "map_class": "softwood", "colour_hex": "#1B7F4B"}, "geometry": {"type": "Polygon", "coordinates": [[[-66.62470858986815, 46.23147910915572], [-66.64077438173108, 46.24230143894162], [-66.65696344763532, 46.243339387888845], [-66.67018072927233, 46.23314323895994], [-66.65930905927279, 46.2179178745144], [-66.63838132565813, 46.21772831162789], [-66.62470858986815, 46.23147910915572]]]}}, {"type": "Feature", "properties": {"stand_id": "CEN-00051", "licence_block": "LB-B", "area_ha": 564.2727939169366, "stand_source": "synthetic", "forest_class": "softwood", "class_confidence": 0.65, "is_trusted": true, "valid_pixel_fraction": 0.696591812400636, "requires_review": false, "change_type": "none", "validation_status": null, "period_end": "2026-08-31", "coverage_status": "retained", "map_class": "softwood", "colour_hex": "#1B7F4B"}, "geometry": {"type": "Polygon", "coordinates": [[[-66.59249886930009, 46.229919713475496], [-66.60146906063973, 46.242365852661294], [-66.62359440176273, 46.24335775951903], [-66.62801315724337, 46.232102349264146], [-66.61638420327971, 46.219327480159684], [-66.60223225479633, 46.21671872146808], [-66.59249886930009, 46.229919713475496]]]}}, {"type": "Feature", "properties": {"stand_id": "CEN-00052", "licence_block": "LB-D", "area_ha": 659.502510837177, "stand_source": "synthetic", "forest_class": "softwood", "class_confidence": 0.668, "is_trusted": true, "valid_pixel_fraction": 0.743063063063063, "requires_review": false, "change_type": "none", "validation_status": null, "period_end": "2026-08-31", "coverage_status": "retained", "map_class": "softwood", "colour_hex": "#1B7F4B"}, "geometry": {"type": "Polygon", "coordinates": [[[-66.55762504677115, 46.22744624728564], [-66.56789120576585, 46.24228776111582], [-66.58533575841204, 46.24305994759133], [-66.59657438339306, 46.23126569553542], [-66.58818397980549, 46.21639637817553], [-66.56221247651696, 46.21799595455481], [-66.55762504677115, 46.22744624728564]]]}}, {"type": "Feature", "properties": {"stand_id": "CEN-00053", "licence_block": "LB-C", "area_ha": 778.7772732964233, "stand_source": "synthetic", "forest_class": "softwood", "class_confidence": 0.842, "is_trusted": true, "valid_pixel_fraction": 0.7334011222837344, "requires_review": true, "change_type": "disturbance", "validation_status": "stubbed", "period_end": "2026-08-31", "coverage_status": "retained", "map_class": "softwood", "colour_hex": "#1B7F4B"}, "geometry": {"type": "Polygon", "coordinates": [[[-66.48438982958798, 46.23080712728281], [-66.48900780981484, 46.2459417574289], [-66.51014891028795, 46.243522004697304], [-66.52575030508167, 46.228738170992905], [-66.51825398702407, 46.21669098400944], [-66.49213276360102, 46.21598527152681], [-66.48438982958798, 46.23080712728281]]]}}, {"type": "Feature", "properties": {"stand_id": "CEN-00054", "licence_block": "LB-D", "area_ha": 738.3923304497578, "stand_source": "synthetic", "forest_class": "softwood", "class_confidence": 0.714, "is_trusted": true, "valid_pixel_fraction": 0.7442957349028461, "requires_review": false, "change_type": "none", "validation_status": "stubbed", "period_end": "2026-08-31", "coverage_status": "retained", "map_class": "softwood", "colour_hex": "#1B7F4B"}, "geometry": {"type": "Polygon", "coordinates": [[[-66.44641214379119, 46.230863758681004], [-66.45403824097019, 46.24221374702593], [-66.47863443852464, 46.245331022415215], [-66.48704691634735, 46.23135345090807], [-66.47959597616341, 46.216909781582935], [-66.45534228047994, 46.217712506198026], [-66.44641214379119, 46.230863758681004]]]}}, {"type": "Feature", "properties": {"stand_id": "CEN-00055", "licence_block": "LB-E", "area_ha": 706.928512193797, "stand_source": "synthetic", "forest_class": "regenerating", "class_confidence": 0.511, "is_trusted": true, "valid_pixel_fraction": 0.7110949846798903, "requires_review": true, "change_type": "disturbance", "validation_status": "stubbed", "period_end": "2026-08-31", "coverage_status": "retained", "map_class": "regenerating", "colour_hex": "#9DD08A"}, "geometry": {"type": "Polygon", "coordinates": [[[-66.41013567649397, 46.23119194439948], [-66.42123323147943, 46.24457894331623], [-66.44162755139388, 46.24463173005442], [-66.45055236533207, 46.22933485933497], [-66.44066226071328, 46.21923503548548], [-66.41982208635862, 46.215982167244235], [-66.41013567649397, 46.23119194439948]]]}}, {"type": "Feature", "properties": {"stand_id": "CEN-00056", "licence_block": "LB-D", "area_ha": 708.6852125303308, "stand_source": "synthetic", "forest_class": "softwood", "class_confidence": 0.773, "is_trusted": true, "valid_pixel_fraction": 0.6772159156060085, "requires_review": false, "change_type": "harvest", "validation_status": null, "period_end": "2026-08-31", "coverage_status": "retained", "map_class": "softwood", "colour_hex": "#1B7F4B"}, "geometry": {"type": "Polygon", "coordinates": [[[-66.67563618626315, 46.252649271118145], [-66.69295946155688, 46.266264809964], [-66.71181201026391, 46.26234646716597], [-66.71998441543091, 46.247920903212666], [-66.71305434038771, 46.2396931720937], [-66.6906511064153, 46.238616684114525], [-66.67563618626315, 46.252649271118145]]]}}, {"type": "Feature", "properties": {"stand_id": "CEN-00057", "licence_block": "LB-A", "area_ha": 617.2802386323704, "stand_source": "synthetic", "forest_class": "softwood", "class_confidence": 0.787, "is_trusted": true, "valid_pixel_fraction": 0.6890178571428571, "requires_review": false, "change_type": "harvest", "validation_status": null, "period_end": "2026-08-31", "coverage_status": "retained", "map_class": "softwood", "colour_hex": "#1B7F4B"}, "geometry": {"type": "Polygon", "coordinates": [[[-66.64538726804692, 46.25124900789574], [-66.65677478762032, 46.26481850591081], [-66.6752342495122, 46.263318080719664], [-66.68694467975317, 46.25107828575906], [-66.6719364685342, 46.23980732489826], [-66.65517513880374, 46.23967153189366], [-66.64538726804692, 46.25124900789574]]]}}, {"type": "Feature", "properties": {"stand_id": "CEN-00058", "licence_block": "LB-C", "area_ha": 663.3084391760622, "stand_source": "synthetic", "forest_class": "softwood", "class_confidence": 0.669, "is_trusted": true, "valid_pixel_fraction": 0.7418791946308725, "requires_review": true, "change_type": "disturbance", "validation_status": "stubbed", "period_end": "2026-08-31", "coverage_status": "retained", "map_class": "softwood", "colour_hex": "#1B7F4B"}, "geometry": {"type": "Polygon", "coordinates": [[[-66.46443079834064, 46.251003264689864], [-66.4741266962671, 46.266121080675106], [-66.49480221453618, 46.26473607546025], [-66.50346503294853, 46.253603008031156], [-66.49402003330636, 46.24008648464733], [-66.47207402046126, 46.23933346677689], [-66.46443079834064, 46.251003264689864]]]}}, {"type": "Feature", "properties": {"stand_id": "CEN-00059", "licence_block": "LB-A", "area_ha": 699.267148043822, "stand_source": "synthetic", "forest_class": null, "class_confidence": null, "is_trusted": null, "valid_pixel_fraction": null, "requires_review": null, "change_type": null, "validation_status": null, "period_end": "2026-08-31", "coverage_status": "no_classified_result", "map_class": "no_classified_result", "colour_hex": "#61717D"}, "geometry": {"type": "Polygon", "coordinates": [[[-66.42414403418795, 46.25206911593512], [-66.44045007755338, 46.26365734140492], [-66.45400972858148, 46.26850622082147], [-66.4704972481293, 46.25343208797425], [-66.45753593489404, 46.23872554113189], [-66.44249495347044, 46.23968620209476], [-66.42414403418795, 46.25206911593512]]]}}, {"type": "Feature", "properties": {"stand_id": "CEN-00060", "licence_block": "LB-D", "area_ha": 615.151147897468, "stand_source": "synthetic", "forest_class": "softwood", "class_confidence": 0.859, "is_trusted": true, "valid_pixel_fraction": 0.6734961912266877, "requires_review": false, "change_type": "none", "validation_status": null, "period_end": "2026-08-31", "coverage_status": "retained", "map_class": "softwood", "colour_hex": "#1B7F4B"}, "geometry": {"type": "Polygon", "coordinates": [[[-66.84448169145088, 46.27268173871151], [-66.85642326277639, 46.286282041728285], [-66.87328316590374, 46.28486871759464], [-66.88657294406829, 46.274211342677766], [-66.87413337102537, 46.260854936944256], [-66.85697321638673, 46.26169978013657], [-66.84448169145088, 46.27268173871151]]]}}, {"type": "Feature", "properties": {"stand_id": "CEN-00106", "licence_block": "LB-D", "area_ha": 724.8027835382507, "stand_source": "synthetic", "forest_class": "softwood", "class_confidence": 0.735, "is_trusted": true, "valid_pixel_fraction": 0.6505526844674131, "requires_review": false, "change_type": "none", "validation_status": "stubbed", "period_end": "2026-08-31", "coverage_status": "retained", "map_class": "softwood", "colour_hex": "#1B7F4B"}, "geometry": {"type": "Polygon", "coordinates": [[[-66.51637472892749, 46.36041399821507], [-66.52819988954057, 46.37511608545826], [-66.54843870345194, 46.37242914851866], [-66.56099105334866, 46.358727041293534], [-66.54622446392713, 46.345955679625035], [-66.52973273335007, 46.34789312047962], [-66.51637472892749, 46.36041399821507]]]}}, {"type": "Feature", "properties": {"stand_id": "CEN-00107", "licence_block": "LB-F", "area_ha": 738.4971696393792, "stand_source": "synthetic", "forest_class": "softwood", "class_confidence": 0.735, "is_trusted": true, "valid_pixel_fraction": 0.6710029069767441, "requires_review": false, "change_type": "none", "validation_status": "stubbed", "period_end": "2026-08-31", "coverage_status": "retained", "map_class": "softwood", "colour_hex": "#1B7F4B"}, "geometry": {"type": "Polygon", "coordinates": [[[-66.4823798913054, 46.36132288524138], [-66.4934050211607, 46.374097122372504], [-66.5132222860941, 46.37636842329433], [-66.52411634615058, 46.361656647141565], [-66.50970742223969, 46.348421123797465], [-66.4903066504643, 46.34537610313603], [-66.4823798913054, 46.36132288524138]]]}}, {"type": "Feature", "properties": {"stand_id": "CEN-00108", "licence_block": "LB-B", "area_ha": 725.5609794301066, "stand_source": "synthetic", "forest_class": "softwood", "class_confidence": 0.683, "is_trusted": true, "valid_pixel_fraction": 0.7828674948240165, "requires_review": false, "change_type": "harvest", "validation_status": "stubbed", "period_end": "2026-08-31", "coverage_status": "retained", "map_class": "softwood", "colour_hex": "#1B7F4B"}, "geometry": {"type": "Polygon", "coordinates": [[[-66.44613219960573, 46.359611375993964], [-66.45740686428078, 46.37203216167179], [-66.48232357369142, 46.37250674952403], [-66.48819452505423, 46.36260844017592], [-66.47838100072902, 46.346725320125095], [-66.4540101665312, 46.346545750605664], [-66.44613219960573, 46.359611375993964]]]}}, {"type": "Feature", "properties": {"stand_id": "CEN-00109", "licence_block": "LB-A", "area_ha": 646.3474309258054, "stand_source": "synthetic", "forest_class": "mixedwood", "class_confidence": 0.45, "is_trusted": true, "valid_pixel_fraction": 0.6979625312958646, "requires_review": false, "change_type": "none", "validation_status": null, "period_end": "2026-08-31", "coverage_status": "retained", "map_class": "mixedwood", "colour_hex": "#7A9E3F"}, "geometry": {"type": "Polygon", "coordinates": [[[-66.40935638540839, 46.36021536498384], [-66.41871269846375, 46.373690228356345], [-66.44051495284509, 46.37159890700974], [-66.45146407883071, 46.360121557141284], [-66.44568359769276, 46.34803153054948], [-66.42337007503193, 46.34984067023291], [-66.40935638540839, 46.36021536498384]]]}}, {"type": "Feature", "properties": {"stand_id": "CEN-00110", "licence_block": "LB-E", "area_ha": 766.2117684604419, "stand_source": "synthetic", "forest_class": "softwood", "class_confidence": 0.853, "is_trusted": true, "valid_pixel_fraction": 0.6991463592587188, "requires_review": false, "change_type": "none", "validation_status": "stubbed", "period_end": "2026-08-31", "coverage_status": "retained", "map_class": "softwood", "colour_hex": "#1B7F4B"}, "geometry": {"type": "Polygon", "coordinates": [[[-66.82606042252708, 46.38064836158969], [-66.841088034734, 46.39515157851313], [-66.85949977245564, 46.39547321155865], [-66.87238595750676, 46.38134870581522], [-66.85726556814598, 46.36778289386254], [-66.8342202369283, 46.36930744910429], [-66.82606042252708, 46.38064836158969]]]}}, {"type": "Feature", "properties": {"stand_id": "CEN-00111", "licence_block": "LB-D", "area_ha": 722.3059716860554, "stand_source": "synthetic", "forest_class": "softwood", "class_confidence": 0.81, "is_trusted": true, "valid_pixel_fraction": 0.6572301870315115, "requires_review": false, "change_type": "none", "validation_status": "stubbed", "period_end": "2026-08-31", "coverage_status": "retained", "map_class": "softwood", "colour_hex": "#1B7F4B"}, "geometry": {"type": "Polygon", "coordinates": [[[-66.78721535489878, 46.38328481117424], [-66.79896565072313, 46.39479211842455], [-66.8184649316425, 46.39688885936433], [-66.83474001723238, 46.38122633466595], [-66.8197039041548, 46.37053879201812], [-66.80295142760512, 46.369718270891816], [-66.78721535489878, 46.38328481117424]]]}}, {"type": "Feature", "properties": {"stand_id": "CEN-00112", "licence_block": "LB-A", "area_ha": 547.1736732779688, "stand_source": "synthetic", "forest_class": "softwood", "class_confidence": 0.773, "is_trusted": true, "valid_pixel_fraction": 0.6983163265306123, "requires_review": false, "change_type": "none", "validation_status": null, "period_end": "2026-08-31", "coverage_status": "retained", "map_class": "softwood", "colour_hex": "#1B7F4B"}, "geometry": {"type": "Polygon", "coordinates": [[[-66.75786717519638, 46.38295505805913], [-66.7675278131842, 46.395783021486864], [-66.78538339364445, 46.39260483133453], [-66.79447110035166, 46.38247522358354], [-66.78727830999918, 46.37055056232428], [-66.76936441554817, 46.370834640202496], [-66.75786717519638, 46.38295505805913]]]}}, {"type": "Feature", "properties": {"stand_id": "CEN-00113", "licence_block": "LB-E", "area_ha": 714.9790305144865, "stand_source": "synthetic", "forest_class": "softwood", "class_confidence": 0.823, "is_trusted": true, "valid_pixel_fraction": 0.6828495034377388, "requires_review": false, "change_type": "none", "validation_status": "stubbed", "period_end": "2026-08-31", "coverage_status": "retained", "map_class": "softwood", "colour_hex": "#1B7F4B"}, "geometry": {"type": "Polygon", "coordinates": [[[-66.71548850900237, 46.38426051162447], [-66.72956411463515, 46.395105538004145], [-66.74838230550777, 46.39251240637331], [-66.75986291571184, 46.382482862167315], [-66.75137738107404, 46.36742610021058], [-66.7306385824012, 46.36812498477946], [-66.71548850900237, 46.38426051162447]]]}}, {"type": "Feature", "properties": {"stand_id": "CEN-00114", "licence_block": "LB-F", "area_ha": 709.4989310109263, "stand_source": "synthetic", "forest_class": "softwood", "class_confidence": 0.739, "is_trusted": true, "valid_pixel_fraction": 0.678819842543759, "requires_review": false, "change_type": "none", "validation_status": "stubbed", "period_end": "2026-08-31", "coverage_status": "retained", "map_class": "softwood", "colour_hex": "#1B7F4B"}, "geometry": {"type": "Polygon", "coordinates": [[[-66.67933115515547, 46.383612447846964], [-66.69212395602766, 46.394570443655255], [-66.71481757501697, 46.39529519050137], [-66.72568999445204, 46.38126423003907], [-66.71133257494475, 46.371333030599736], [-66.6931551636516, 46.36889400980571], [-66.67933115515547, 46.383612447846964]]]}}, {"type": "Feature", "properties": {"stand_id": "CEN-00115", "licence_block": "LB-E", "area_ha": 682.4842460041089, "stand_source": "synthetic", "forest_class": "softwood", "class_confidence": 0.721, "is_trusted": true, "valid_pixel_fraction": 0.7058920887123469, "requires_review": false, "change_type": "harvest", "validation_status": null, "period_end": "2026-08-31", "coverage_status": "retained", "map_class": "softwood", "colour_hex": "#1B7F4B"}, "geometry": {"type": "Polygon", "coordinates": [[[-66.6113758954919, 46.3826655228069], [-66.62044204760332, 46.397380833823995], [-66.6405922721943, 46.394378601275804], [-66.65080958680137, 46.383349073529615], [-66.64180034717975, 46.368763367996195], [-66.61758483886621, 46.37122182618265], [-66.6113758954919, 46.3826655228069]]]}}, {"type": "Feature", "properties": {"stand_id": "CEN-00116", "licence_block": "LB-F", "area_ha": 665.6790329079948, "stand_source": "synthetic", "forest_class": "softwood", "class_confidence": 0.791, "is_trusted": true, "valid_pixel_fraction": 0.690559150489464, "requires_review": false, "change_type": "none", "validation_status": null, "period_end": "2026-08-31", "coverage_status": "retained", "map_class": "softwood", "colour_hex": "#1B7F4B"}, "geometry": {"type": "Polygon", "coordinates": [[[-66.57073934739806, 46.38159243680918], [-66.58363078292962, 46.39266431504942], [-66.60254545532804, 46.395621820703056], [-66.61349742196681, 46.382042592904924], [-66.60739789355988, 46.36915247650523], [-66.58146656458524, 46.37108014024546], [-66.57073934739806, 46.38159243680918]]]}}, {"type": "Feature", "properties": {"stand_id": "CEN-00117", "licence_block": "LB-C", "area_ha": 706.1033171344992, "stand_source": "synthetic", "forest_class": "softwood", "class_confidence": 0.746, "is_trusted": true, "valid_pixel_fraction": 0.6604444111925781, "requires_review": false, "change_type": "none", "validation_status": null, "period_end": "2026-08-31", "coverage_status": "retained", "map_class": "softwood", "colour_hex": "#1B7F4B"}, "geometry": {"type": "Polygon", "coordinates": [[[-66.53471028960996, 46.38063339749049], [-66.54888012157502, 46.395096636150576], [-66.56862798605525, 46.39754672705502], [-66.57717172911981, 46.3813558326108], [-66.5655871727261, 46.36802605755672], [-66.54614558346638, 46.37112059061951], [-66.53471028960996, 46.38063339749049]]]}}, {"type": "Feature", "properties": {"stand_id": "CEN-00118", "licence_block": "LB-D", "area_ha": 751.2231148602255, "stand_source": "synthetic", "forest_class": "softwood", "class_confidence": 0.678, "is_trusted": true, "valid_pixel_fraction": 0.7372434939853763, "requires_review": false, "change_type": "none", "validation_status": "stubbed", "period_end": "2026-08-31", "coverage_status": "retained", "map_class": "softwood", "colour_hex": "#1B7F4B"}, "geometry": {"type": "Polygon", "coordinates": [[[-66.49997074651485, 46.381505365799725], [-66.51204219143965, 46.394329456395226], [-66.53546249601544, 46.39665963707719], [-66.54183045048659, 46.382549615204645], [-66.53445711001754, 46.368800754139215], [-66.51118547889604, 46.36809609054217], [-66.49997074651485, 46.381505365799725]]]}}, {"type": "Feature", "properties": {"stand_id": "CEN-00119", "licence_block": "LB-C", "area_ha": 699.8046863351581, "stand_source": "synthetic", "forest_class": "softwood", "class_confidence": 0.763, "is_trusted": true, "valid_pixel_fraction": 0.6929289729986539, "requires_review": false, "change_type": "harvest", "validation_status": null, "period_end": "2026-08-31", "coverage_status": "retained", "map_class": "softwood", "colour_hex": "#1B7F4B"}, "geometry": {"type": "Polygon", "coordinates": [[[-66.46260741029752, 46.382483578605125], [-66.47783333724966, 46.39587020910854], [-66.49698691909482, 46.39134378182925], [-66.5076157205489, 46.383815064943015], [-66.49751056500021, 46.36960443041142], [-66.4703825822344, 46.37008712974352], [-66.46260741029752, 46.382483578605125]]]}}, {"type": "Feature", "properties": {"stand_id": "CEN-00120", "licence_block": "LB-A", "area_ha": 761.8731476515862, "stand_source": "synthetic", "forest_class": "softwood", "class_confidence": 0.66, "is_trusted": true, "valid_pixel_fraction": 0.7197098492576222, "requires_review": false, "change_type": "none", "validation_status": "stubbed", "period_end": "2026-08-31", "coverage_status": "retained", "map_class": "softwood", "colour_hex": "#1B7F4B"}, "geometry": {"type": "Polygon", "coordinates": [[[-66.42626012846041, 46.38313722534201], [-66.43497924866935, 46.39453586811847], [-66.46249544748414, 46.39515059551139], [-66.47121522183924, 46.38156799769755], [-66.45938344130008, 46.36993207162614], [-66.43997984936757, 46.36754360741343], [-66.42626012846041, 46.38313722534201]]]}}, {"type": "Feature", "properties": {"stand_id": "CEN-00076", "licence_block": "LB-D", "area_ha": 680.9034324495506, "stand_source": "synthetic", "forest_class": "softwood", "class_confidence": 0.67, "is_trusted": true, "valid_pixel_fraction": 0.6951408738260515, "requires_review": false, "change_type": "none", "validation_status": null, "period_end": "2026-08-31", "coverage_status": "retained", "map_class": "softwood", "colour_hex": "#1B7F4B"}, "geometry": {"type": "Polygon", "coordinates": [[[-66.64757937691071, 46.29349775657311], [-66.6556460714691, 46.30512063954912], [-66.67654360180312, 46.31039615494159], [-66.687757479526, 46.29452539428565], [-66.67919451229461, 46.28177657316135], [-66.65479424304192, 46.283315770059644], [-66.64757937691071, 46.29349775657311]]]}}, {"type": "Feature", "properties": {"stand_id": "CEN-00077", "licence_block": "LB-F", "area_ha": 659.1540476702495, "stand_source": "synthetic", "forest_class": "softwood", "class_confidence": 0.756, "is_trusted": true, "valid_pixel_fraction": 0.6792188529993408, "requires_review": false, "change_type": "none", "validation_status": null, "period_end": "2026-08-31", "coverage_status": "retained", "map_class": "softwood", "colour_hex": "#1B7F4B"}, "geometry": {"type": "Polygon", "coordinates": [[[-66.61013504673086, 46.29575098862867], [-66.62175564588159, 46.30798578788189], [-66.64128902636169, 46.310450852320066], [-66.65274412453626, 46.29529221179937], [-66.63881571042148, 46.283838837939676], [-66.61904156960081, 46.285282793747726], [-66.61013504673086, 46.29575098862867]]]}}, {"type": "Feature", "properties": {"stand_id": "CEN-00078", "licence_block": "LB-B", "area_ha": 661.5821505727829, "stand_source": "synthetic", "forest_class": "softwood", "class_confidence": 0.624, "is_trusted": true, "valid_pixel_fraction": 0.732943469785575, "requires_review": false, "change_type": "harvest", "validation_status": null, "period_end": "2026-08-31", "coverage_status": "retained", "map_class": "softwood", "colour_hex": "#1B7F4B"}, "geometry": {"type": "Polygon", "coordinates": [[[-66.57039800439165, 46.29348687683674], [-66.5834653809267, 46.30689716169172], [-66.60308355914992, 46.307244558602896], [-66.61478476512107, 46.29682040926307], [-66.60610217945874, 46.28355189639626], [-66.58188841284183, 46.28399010195941], [-66.57039800439165, 46.29348687683674]]]}}, {"type": "Feature", "properties": {"stand_id": "CEN-00079", "licence_block": "LB-C", "area_ha": 621.7763407041418, "stand_source": "synthetic", "forest_class": "regenerating", "class_confidence": 0.517, "is_trusted": true, "valid_pixel_fraction": 0.7281285125515174, "requires_review": false, "change_type": "harvest", "validation_status": null, "period_end": "2026-08-31", "coverage_status": "retained", "map_class": "regenerating", "colour_hex": "#9DD08A"}, "geometry": {"type": "Polygon", "coordinates": [[[-66.53908783647444, 46.29761749692735], [-66.54581398958119, 46.30804048728264], [-66.56795699493367, 46.30902353790723], [-66.58002891623305, 46.296849949518325], [-66.56867902397276, 46.28497092353518], [-66.55042773527187, 46.284529565611635], [-66.53908783647444, 46.29761749692735]]]}}, {"type": "Feature", "properties": {"stand_id": "CEN-00080", "licence_block": "LB-A", "area_ha": 693.5941984589593, "stand_source": "synthetic", "forest_class": "softwood", "class_confidence": 0.637, "is_trusted": true, "valid_pixel_fraction": 0.6409934215389164, "requires_review": false, "change_type": "harvest", "validation_status": null, "period_end": "2026-08-31", "coverage_status": "retained", "map_class": "softwood", "colour_hex": "#1B7F4B"}, "geometry": {"type": "Polygon", "coordinates": [[[-66.50270433788764, 46.297628077897215], [-66.511293419973, 46.30647386211407], [-66.53398327499926, 46.30948117796522], [-66.545677503092, 46.29617253102066], [-66.53267890964496, 46.28562295014332], [-66.51146218955297, 46.280178059858585], [-66.50270433788764, 46.297628077897215]]]}}, {"type": "Feature", "properties": {"stand_id": "CEN-00081", "licence_block": "LB-E", "area_ha": 653.0966493969316, "stand_source": "synthetic", "forest_class": "softwood", "class_confidence": 0.782, "is_trusted": true, "valid_pixel_fraction": 0.7502757859900717, "requires_review": false, "change_type": "none", "validation_status": null, "period_end": "2026-08-31", "coverage_status": "retained", "map_class": "softwood", "colour_hex": "#1B7F4B"}, "geometry": {"type": "Polygon", "coordinates": [[[-66.46377255207081, 46.29803602568386], [-66.47828093632437, 46.306914032029624], [-66.49896946762306, 46.3098598620988], [-66.50203477247597, 46.294268131431416], [-66.49842673063488, 46.28403531407059], [-66.47213728710037, 46.28327869729993], [-66.46377255207081, 46.29803602568386]]]}}, {"type": "Feature", "properties": {"stand_id": "CEN-00082", "licence_block": "LB-F", "area_ha": 738.8301264666446, "stand_source": "synthetic", "forest_class": "softwood", "class_confidence": 0.757, "is_trusted": true, "valid_pixel_fraction": 0.7134306456595613, "requires_review": false, "change_type": "none", "validation_status": "stubbed", "period_end": "2026-08-31", "coverage_status": "retained", "map_class": "softwood", "colour_hex": "#1B7F4B"}, "geometry": {"type": "Polygon", "coordinates": [[[-66.42904866479546, 46.29357467013831], [-66.43896963957518, 46.30896729982551], [-66.46277876195721, 46.308389330131504], [-66.47243946937212, 46.29566971605926], [-66.46220363557856, 46.28315124573242], [-66.44433968140713, 46.28094116379807], [-66.42904866479546, 46.29357467013831]]]}}, {"type": "Feature", "properties": {"stand_id": "CEN-00083", "licence_block": "LB-F", "area_ha": 741.7551218211006, "stand_source": "synthetic", "forest_class": "softwood", "class_confidence": 0.869, "is_trusted": true, "valid_pixel_fraction": 0.7131487889273357, "requires_review": false, "change_type": "none", "validation_status": "stubbed", "period_end": "2026-08-31", "coverage_status": "retained", "map_class": "softwood", "colour_hex": "#1B7F4B"}, "geometry": {"type": "Polygon", "coordinates": [[[-66.84406962601363, 46.31654996087887], [-66.8549471924789, 46.33111457888524], [-66.87879024367456, 46.3299871019686], [-66.88837149572313, 46.31505842557847], [-66.87266781382358, 46.30349400236923], [-66.85266659438018, 46.305955641550774], [-66.84406962601363, 46.31654996087887]]]}}, {"type": "Feature", "properties": {"stand_id": "CEN-00084", "licence_block": "LB-A", "area_ha": 625.1706329605757, "stand_source": "synthetic", "forest_class": "softwood", "class_confidence": 0.885, "is_trusted": true, "valid_pixel_fraction": 0.6291714614499425, "requires_review": false, "change_type": "harvest", "validation_status": null, "period_end": "2026-08-31", "coverage_status": "retained", "map_class": "softwood", "colour_hex": "#1B7F4B"}, "geometry": {"type": "Polygon", "coordinates": [[[-66.81091697083657, 46.31688014248153], [-66.82023657107543, 46.32741341625073], [-66.83450788843832, 46.33127254334544], [-66.85189417027112, 46.31459798832479], [-66.84042636501874, 46.304963154270546], [-66.82009288147323, 46.303627785108276], [-66.81091697083657, 46.31688014248153]]]}}, {"type": "Feature", "properties": {"stand_id": "CEN-00085", "licence_block": "LB-D", "area_ha": 690.7067799235192, "stand_source": "synthetic", "forest_class": "softwood", "class_confidence": 0.812, "is_trusted": true, "valid_pixel_fraction": 0.6997885835095138, "requires_review": false, "change_type": "harvest", "validation_status": null, "period_end": "2026-08-31", "coverage_status": "retained", "map_class": "softwood", "colour_hex": "#1B7F4B"}, "geometry": {"type": "Polygon", "coordinates": [[[-66.77055047489536, 46.31597667341733], [-66.77933366035867, 46.32912900655565], [-66.80391865020061, 46.330680817696056], [-66.81549040191031, 46.318974657119945], [-66.80338095450576, 46.30729678981271], [-66.78281585020517, 46.304970926052846], [-66.77055047489536, 46.31597667341733]]]}}, {"type": "Feature", "properties": {"stand_id": "CEN-00086", "licence_block": "LB-A", "area_ha": 582.7179814837149, "stand_source": "synthetic", "forest_class": "softwood", "class_confidence": 0.616, "is_trusted": true, "valid_pixel_fraction": 0.7129153819801302, "requires_review": false, "change_type": "none", "validation_status": null, "period_end": "2026-08-31", "coverage_status": "retained", "map_class": "softwood", "colour_hex": "#1B7F4B"}, "geometry": {"type": "Polygon", "coordinates": [[[-66.7000686043288, 46.317054753064696], [-66.70946310748893, 46.33193417734597], [-66.72932138803887, 46.327691835307114], [-66.73845524219676, 46.318988587403894], [-66.73198980491142, 46.30700643877462], [-66.70964234883871, 46.30692988198845], [-66.7000686043288, 46.317054753064696]]]}}, {"type": "Feature", "properties": {"stand_id": "CEN-00087", "licence_block": "LB-C", "area_ha": 641.9248985977971, "stand_source": "synthetic", "forest_class": "softwood", "class_confidence": 0.754, "is_trusted": true, "valid_pixel_fraction": 0.7095048629531389, "requires_review": false, "change_type": "none", "validation_status": null, "period_end": "2026-08-31", "coverage_status": "retained", "map_class": "softwood", "colour_hex": "#1B7F4B"}, "geometry": {"type": "Polygon", "coordinates": [[[-66.66479797797952, 46.3186864074573], [-66.67187650638697, 46.33189917066736], [-66.69673274704301, 46.32727659444708], [-66.70262994232978, 46.31793628290909], [-66.6934713320773, 46.30381448446183], [-66.6759782155175, 46.304215588609445], [-66.66479797797952, 46.3186864074573]]]}}, {"type": "Feature", "properties": {"stand_id": "CEN-00088", "licence_block": "LB-E", "area_ha": 711.3153989541632, "stand_source": "synthetic", "forest_class": "softwood", "class_confidence": 0.807, "is_trusted": true, "valid_pixel_fraction": 0.7055093143083631, "requires_review": false, "change_type": "harvest", "validation_status": "stubbed", "period_end": "2026-08-31", "coverage_status": "retained", "map_class": "softwood", "colour_hex": "#1B7F4B"}, "geometry": {"type": "Polygon", "coordinates": [[[-66.62590197648233, 46.31530690899699], [-66.63783153731603, 46.330258598787275], [-66.65444063616606, 46.33028227835093], [-66.67131306401419, 46.31520197960766], [-66.66146294062055, 46.304181751185], [-66.63796935798472, 46.30508124893034], [-66.62590197648233, 46.31530690899699]]]}}, {"type": "Feature", "properties": {"stand_id": "CEN-00089", "licence_block": "LB-A", "area_ha": 750.2454892227333, "stand_source": "synthetic", "forest_class": "softwood", "class_confidence": 0.757, "is_trusted": true, "valid_pixel_fraction": 0.7154514948139109, "requires_review": false, "change_type": "harvest", "validation_status": "stubbed", "period_end": "2026-08-31", "coverage_status": "retained", "map_class": "softwood", "colour_hex": "#1B7F4B"}, "geometry": {"type": "Polygon", "coordinates": [[[-66.58916740879678, 46.315512096777475], [-66.60134243184112, 46.33067729469621], [-66.62522610427521, 46.329956082489076], [-66.6347436926638, 46.316593318543006], [-66.62435324243468, 46.30552377002311], [-66.6032752658727, 46.30385162487275], [-66.58916740879678, 46.315512096777475]]]}}, {"type": "Feature", "properties": {"stand_id": "CEN-00090", "licence_block": "LB-B", "area_ha": 730.8964043077797, "stand_source": "synthetic", "forest_class": "mixedwood", "class_confidence": 0.45, "is_trusted": true, "valid_pixel_fraction": 0.7143695014662756, "requires_review": true, "change_type": "disturbance", "validation_status": "stubbed", "period_end": "2026-08-31", "coverage_status": "retained", "map_class": "mixedwood", "colour_hex": "#7A9E3F"}, "geometry": {"type": "Polygon", "coordinates": [[[-66.55451374764746, 46.317878472157794], [-66.56527291856702, 46.333600416317424], [-66.58893202145164, 46.33068644770586], [-66.59494543311989, 46.317306249554804], [-66.58362381591705, 46.30620982991225], [-66.56276771784314, 46.30385929270805], [-66.55451374764746, 46.317878472157794]]]}}, {"type": "Feature", "properties": {"stand_id": "CEN-00001", "licence_block": "LB-E", "area_ha": 658.6411089808422, "stand_source": "synthetic", "forest_class": "softwood", "class_confidence": 0.845, "is_trusted": true, "valid_pixel_fraction": 0.7426948051948052, "requires_review": false, "change_type": "harvest", "validation_status": null, "period_end": "2026-08-31", "coverage_status": "retained", "map_class": "softwood", "colour_hex": "#1B7F4B"}, "geometry": {"type": "Polygon", "coordinates": [[[-66.79021767616244, 46.12380049822599], [-66.79869805594079, 46.1347371157812], [-66.82028454021483, 46.133553103804616], [-66.82755223430512, 46.12363336159342], [-66.82108021001008, 46.107016476463], [-66.79866695815865, 46.1095900663343], [-66.79021767616244, 46.12380049822599]]]}}, {"type": "Feature", "properties": {"stand_id": "CEN-00002", "licence_block": "LB-E", "area_ha": 715.8299416094379, "stand_source": "synthetic", "forest_class": "softwood", "class_confidence": 0.745, "is_trusted": true, "valid_pixel_fraction": 0.7620689655172413, "requires_review": false, "change_type": "harvest", "validation_status": "stubbed", "period_end": "2026-08-31", "coverage_status": "retained", "map_class": "softwood", "colour_hex": "#1B7F4B"}, "geometry": {"type": "Polygon", "coordinates": [[[-66.75145557555224, 46.12004043677834], [-66.7611857289471, 46.13245380897197], [-66.78535158710629, 46.13327875975868], [-66.79349718144823, 46.119860489906145], [-66.78442716213951, 46.10705442621433], [-66.76068876048225, 46.108155874284705], [-66.75145557555224, 46.12004043677834]]]}}, {"type": "Feature", "properties": {"stand_id": "CEN-00003", "licence_block": "LB-F", "area_ha": 654.8501076975781, "stand_source": "synthetic", "forest_class": "softwood", "class_confidence": 0.867, "is_trusted": true, "valid_pixel_fraction": 0.704353811736362, "requires_review": false, "change_type": "harvest", "validation_status": null, "period_end": "2026-08-31", "coverage_status": "retained", "map_class": "softwood", "colour_hex": "#1B7F4B"}, "geometry": {"type": "Polygon", "coordinates": [[[-66.7155683379007, 46.122430675485624], [-66.72554829727059, 46.13368539147474], [-66.74935882102756, 46.1354475104617], [-66.75605446952142, 46.12232006290014], [-66.74530618086362, 46.109356856707535], [-66.73025399898796, 46.10865955315015], [-66.7155683379007, 46.122430675485624]]]}}, {"type": "Feature", "properties": {"stand_id": "CEN-00004", "licence_block": "LB-D", "area_ha": 591.7764098750044, "stand_source": "synthetic", "forest_class": "softwood", "class_confidence": 0.691, "is_trusted": true, "valid_pixel_fraction": 0.6928768791270548, "requires_review": false, "change_type": "harvest", "validation_status": null, "period_end": "2026-08-31", "coverage_status": "retained", "map_class": "softwood", "colour_hex": "#1B7F4B"}, "geometry": {"type": "Polygon", "coordinates": [[[-66.68062118074195, 46.12010834450018], [-66.69414326601282, 46.133939028527664], [-66.7139947680261, 46.134869616319136], [-66.72296417496887, 46.12142444428231], [-66.71118095093453, 46.11279361757615], [-66.6920425888676, 46.11132792113014], [-66.68062118074195, 46.12010834450018]]]}}, {"type": "Feature", "properties": {"stand_id": "CEN-00005", "licence_block": "LB-B", "area_ha": 620.7640824872501, "stand_source": "synthetic", "forest_class": "softwood", "class_confidence": 0.774, "is_trusted": true, "valid_pixel_fraction": 0.7291343760274295, "requires_review": false, "change_type": "none", "validation_status": null, "period_end": "2026-08-31", "coverage_status": "retained", "map_class": "softwood", "colour_hex": "#1B7F4B"}, "geometry": {"type": "Polygon", "coordinates": [[[-66.64451105381376, 46.12165299963606], [-66.65405096641697, 46.13662854107493], [-66.67613014363342, 46.13552421432078], [-66.68339237877152, 46.12159010703643], [-66.67594036651657, 46.11133451464141], [-66.65800591093682, 46.11201659945904], [-66.64451105381376, 46.12165299963606]]]}}, {"type": "Feature", "properties": {"stand_id": "CEN-00006", "licence_block": "LB-C", "area_ha": 579.9425799688355, "stand_source": "synthetic", "forest_class": "softwood", "class_confidence": 0.801, "is_trusted": true, "valid_pixel_fraction": 0.6625091374269005, "requires_review": true, "change_type": "disturbance", "validation_status": "stubbed", "period_end": "2026-08-31", "coverage_status": "retained", "map_class": "softwood", "colour_hex": "#1B7F4B"}, "geometry": {"type": "Polygon", "coordinates": [[[-66.60908267605788, 46.121050089473265], [-66.61862792912427, 46.13236530517988], [-66.63735139757512, 46.13199522403737], [-66.65356805131707, 46.12321434244471], [-66.63874708659547, 46.11237151780005], [-66.61945130956211, 46.109289823183914], [-66.60908267605788, 46.121050089473265]]]}}, {"type": "Feature", "properties": {"stand_id": "CEN-00007", "licence_block": "LB-C", "area_ha": 633.8891767115795, "stand_source": "synthetic", "forest_class": "softwood", "class_confidence": 0.692, "is_trusted": true, "valid_pixel_fraction": 0.7321494635590086, "requires_review": false, "change_type": "harvest", "validation_status": null, "period_end": "2026-08-31", "coverage_status": "retained", "map_class": "softwood", "colour_hex": "#1B7F4B"}, "geometry": {"type": "Polygon", "coordinates": [[[-66.57668020219391, 46.122975419601495], [-66.5835201434862, 46.13454302292426], [-66.60535601668182, 46.13516367036792], [-66.61195618619666, 46.12139535563197], [-66.60462033599453, 46.11107143046918], [-66.58379251897237, 46.10647054525923], [-66.57668020219391, 46.122975419601495]]]}}, {"type": "Feature", "properties": {"stand_id": "CEN-00008", "licence_block": "LB-B", "area_ha": 673.95982915966, "stand_source": "synthetic", "forest_class": "softwood", "class_confidence": 0.762, "is_trusted": true, "valid_pixel_fraction": 0.7298116475427582, "requires_review": false, "change_type": "none", "validation_status": null, "period_end": "2026-08-31", "coverage_status": "retained", "map_class": "softwood", "colour_hex": "#1B7F4B"}, "geometry": {"type": "Polygon", "coordinates": [[[-66.53814829659301, 46.118511396249794], [-66.54573505713344, 46.131981664548846], [-66.5691422383257, 46.132139230904016], [-66.57833459076207, 46.122246965002155], [-66.5718708949553, 46.105305036756654], [-66.54724503134412, 46.110013329385374], [-66.53814829659301, 46.118511396249794]]]}}, {"type": "Feature", "properties": {"stand_id": "CEN-00009", "licence_block": "LB-A", "area_ha": 621.2875589943134, "stand_source": "synthetic", "forest_class": "softwood", "class_confidence": 0.777, "is_trusted": true, "valid_pixel_fraction": 0.7047990565181892, "requires_review": false, "change_type": "none", "validation_status": null, "period_end": "2026-08-31", "coverage_status": "retained", "map_class": "softwood", "colour_hex": "#1B7F4B"}, "geometry": {"type": "Polygon", "coordinates": [[[-66.50186410823827, 46.12061842285318], [-66.51423579926244, 46.13517914454396], [-66.53113476092213, 46.13336669576215], [-66.54098653106112, 46.12147712177802], [-66.52737349662489, 46.109846834890185], [-66.505314537727, 46.10892595481171], [-66.50186410823827, 46.12061842285318]]]}}, {"type": "Feature", "properties": {"stand_id": "CEN-00010", "licence_block": "LB-C", "area_ha": 660.9533240748464, "stand_source": "synthetic", "forest_class": "softwood", "class_confidence": 0.858, "is_trusted": true, "valid_pixel_fraction": 0.6952144241300868, "requires_review": false, "change_type": "none", "validation_status": null, "period_end": "2026-08-31", "coverage_status": "retained", "map_class": "softwood", "colour_hex": "#1B7F4B"}, "geometry": {"type": "Polygon", "coordinates": [[[-66.4305687660403, 46.12312492367418], [-66.4392524282386, 46.13201328486037], [-66.46156102562993, 46.1350422757776], [-66.47361530014238, 46.12165603427459], [-66.46133763806752, 46.110026047698064], [-66.4411222917759, 46.10921669885314], [-66.4305687660403, 46.12312492367418]]]}}, {"type": "Feature", "properties": {"stand_id": "CEN-00011", "licence_block": "LB-E", "area_ha": 663.6300388712287, "stand_source": "synthetic", "forest_class": "softwood", "class_confidence": 0.796, "is_trusted": true, "valid_pixel_fraction": 0.682530541730081, "requires_review": false, "change_type": "none", "validation_status": null, "period_end": "2026-08-31", "coverage_status": "retained", "map_class": "softwood", "colour_hex": "#1B7F4B"}, "geometry": {"type": "Polygon", "coordinates": [[[-66.80668304736898, 46.1417980065169], [-66.81842026730858, 46.15591480329715], [-66.83705615796855, 46.155596859892206], [-66.84834070068999, 46.14390256396781], [-66.83992444324367, 46.128723172016564], [-66.81902663265198, 46.13232995485906], [-66.80668304736898, 46.1417980065169]]]}}, {"type": "Feature", "properties": {"stand_id": "CEN-00012", "licence_block": "LB-B", "area_ha": 663.8007226898854, "stand_source": "synthetic", "forest_class": "softwood", "class_confidence": 0.805, "is_trusted": true, "valid_pixel_fraction": 0.6496810300966694, "requires_review": true, "change_type": "disturbance", "validation_status": "stubbed", "period_end": "2026-08-31", "coverage_status": "retained", "map_class": "softwood", "colour_hex": "#1B7F4B"}, "geometry": {"type": "Polygon", "coordinates": [[[-66.76942070391716, 46.14368533919618], [-66.78302751566703, 46.15205020667925], [-66.80257386426943, 46.15536067466895], [-66.81277075760947, 46.140022872510606], [-66.80371186882527, 46.12766508944773], [-66.78023582330997, 46.13189185070994], [-66.76942070391716, 46.14368533919618]]]}}, {"type": "Feature", "properties": {"stand_id": "CEN-00013", "licence_block": "LB-D", "area_ha": 663.4866066072469, "stand_source": "synthetic", "forest_class": "softwood", "class_confidence": 0.79, "is_trusted": true, "valid_pixel_fraction": 0.6441717791411042, "requires_review": true, "change_type": "disturbance", "validation_status": "stubbed", "period_end": "2026-08-31", "coverage_status": "retained", "map_class": "softwood", "colour_hex": "#1B7F4B"}, "geometry": {"type": "Polygon", "coordinates": [[[-66.73263911185238, 46.14419390692882], [-66.74638900903989, 46.15409825303088], [-66.76514693793509, 46.15610102195655], [-66.77364135099708, 46.14507814120213], [-66.76311516098987, 46.126695736717295], [-66.74611938876568, 46.13044196771015], [-66.73263911185238, 46.14419390692882]]]}}, {"type": "Feature", "properties": {"stand_id": "CEN-00014", "licence_block": "LB-F", "area_ha": 724.3063208667521, "stand_source": "synthetic", "forest_class": "softwood", "class_confidence": 0.743, "is_trusted": true, "valid_pixel_fraction": 0.697317563388992, "requires_review": false, "change_type": "none", "validation_status": "stubbed", "period_end": "2026-08-31", "coverage_status": "retained", "map_class": "softwood", "colour_hex": "#1B7F4B"}, "geometry": {"type": "Polygon", "coordinates": [[[-66.69673240733682, 46.14535074918013], [-66.71301090997308, 46.156996043622165], [-66.72846175001698, 46.15584301531241], [-66.74026451772224, 46.14236467148526], [-66.72991715266224, 46.1301482196151], [-66.70716981115615, 46.129295630195806], [-66.69673240733682, 46.14535074918013]]]}}, {"type": "Feature", "properties": {"stand_id": "CEN-00015", "licence_block": "LB-D", "area_ha": 793.3078323309015, "stand_source": "synthetic", "forest_class": "softwood", "class_confidence": 0.757, "is_trusted": true, "valid_pixel_fraction": 0.6986754966887417, "requires_review": false, "change_type": "none", "validation_status": "stubbed", "period_end": "2026-08-31", "coverage_status": "retained", "map_class": "softwood", "colour_hex": "#1B7F4B"}, "geometry": {"type": "Polygon", "coordinates": [[[-66.65772373297737, 46.143918196645814], [-66.67475914091608, 46.15748564795667], [-66.69544705342715, 46.156533513738836], [-66.70628092971056, 46.14406906523989], [-66.69552770338785, 46.13185343413209], [-66.67124871095109, 46.13027875514855], [-66.65772373297737, 46.143918196645814]]]}}, {"type": "Feature", "properties": {"stand_id": "CEN-00016", "licence_block": "LB-A", "area_ha": 689.3766728028124, "stand_source": "synthetic", "forest_class": "softwood", "class_confidence": 0.754, "is_trusted": true, "valid_pixel_fraction": 0.7267038728225943, "requires_review": false, "change_type": "harvest", "validation_status": null, "period_end": "2026-08-31", "coverage_status": "retained", "map_class": "softwood", "colour_hex": "#1B7F4B"}, "geometry": {"type": "Polygon", "coordinates": [[[-66.63092154940212, 46.146743567769526], [-66.63201341154333, 46.15617111989662], [-66.65938886789041, 46.154346490748104], [-66.67298655991047, 46.14166509190076], [-66.65601417285833, 46.129838295768025], [-66.63840525957879, 46.129845208814864], [-66.63092154940212, 46.146743567769526]]]}}, {"type": "Feature", "properties": {"stand_id": "CEN-00017", "licence_block": "LB-F", "area_ha": 666.676402110659, "stand_source": "synthetic", "forest_class": "softwood", "class_confidence": 0.564, "is_trusted": true, "valid_pixel_fraction": 0.7131344307270233, "requires_review": false, "change_type": "none", "validation_status": null, "period_end": "2026-08-31", "coverage_status": "retained", "map_class": "softwood", "colour_hex": "#1B7F4B"}, "geometry": {"type": "Polygon", "coordinates": [[[-66.59197211669735, 46.14357965853702], [-66.59935598995062, 46.15518310150107], [-66.62125281558396, 46.15581285905366], [-66.63391616937673, 46.14311793311951], [-66.61976839484026, 46.130788386337905], [-66.60195580209212, 46.12988137327435], [-66.59197211669735, 46.14357965853702]]]}}, {"type": "Feature", "properties": {"stand_id": "CEN-00018", "licence_block": "LB-B", "area_ha": 774.1807874780433, "stand_source": "synthetic", "forest_class": "softwood", "class_confidence": 0.643, "is_trusted": true, "valid_pixel_fraction": 0.6898950974095482, "requires_review": false, "change_type": "harvest", "validation_status": "stubbed", "period_end": "2026-08-31", "coverage_status": "retained", "map_class": "softwood", "colour_hex": "#1B7F4B"}, "geometry": {"type": "Polygon", "coordinates": [[[-66.55244900711772, 46.1396340710138], [-66.56611824807973, 46.15524220305289], [-66.58888227647316, 46.15729220360256], [-66.59753657415723, 46.14487785388111], [-66.58532840479374, 46.12979848027044], [-66.56523783478949, 46.12805588013921], [-66.55244900711772, 46.1396340710138]]]}}, {"type": "Feature", "properties": {"stand_id": "CEN-00019", "licence_block": "LB-F", "area_ha": 666.4521532526784, "stand_source": "synthetic", "forest_class": "softwood", "class_confidence": 0.724, "is_trusted": true, "valid_pixel_fraction": 0.699201680672269, "requires_review": false, "change_type": "none", "validation_status": null, "period_end": "2026-08-31", "coverage_status": "retained", "map_class": "softwood", "colour_hex": "#1B7F4B"}, "geometry": {"type": "Polygon", "coordinates": [[[-66.51527286997961, 46.143235725398625], [-66.52676537752876, 46.15560166747979], [-66.5510389067464, 46.15261561458282], [-66.56068120915504, 46.14503005431053], [-66.54708235347196, 46.13094252491645], [-66.5272990655745, 46.13101944410653], [-66.51527286997961, 46.143235725398625]]]}}, {"type": "Feature", "properties": {"stand_id": "CEN-00020", "licence_block": "LB-C", "area_ha": 602.912273009819, "stand_source": "synthetic", "forest_class": "softwood", "class_confidence": 0.775, "is_trusted": true, "valid_pixel_fraction": 0.6996141150216189, "requires_review": false, "change_type": "none", "validation_status": null, "period_end": "2026-08-31", "coverage_status": "retained", "map_class": "softwood", "colour_hex": "#1B7F4B"}, "geometry": {"type": "Polygon", "coordinates": [[[-66.40910398256604, 46.14329923250831], [-66.42177655209714, 46.15345601348381], [-66.43746368917046, 46.154173472614126], [-66.44987376293314, 46.144704592042395], [-66.440309208754, 46.13078032412456], [-66.41966732848938, 46.12956655454403], [-66.40910398256604, 46.14329923250831]]]}}, {"type": "Feature", "properties": {"stand_id": "CEN-00021", "licence_block": "LB-E", "area_ha": 651.6168143161765, "stand_source": "synthetic", "forest_class": "softwood", "class_confidence": 0.769, "is_trusted": true, "valid_pixel_fraction": 0.6932737335036185, "requires_review": false, "change_type": "harvest", "validation_status": null, "period_end": "2026-08-31", "coverage_status": "retained", "map_class": "softwood", "colour_hex": "#1B7F4B"}, "geometry": {"type": "Polygon", "coordinates": [[[-66.82961972390622, 46.161943220252105], [-66.83496148818932, 46.18046996281765], [-66.85800147668634, 46.17654499900352], [-66.86720736223552, 46.16399516566744], [-66.85561050990945, 46.15389198963271], [-66.83623494482227, 46.151278749257365], [-66.82961972390622, 46.161943220252105]]]}}, {"type": "Feature", "properties": {"stand_id": "CEN-00022", "licence_block": "LB-E", "area_ha": 721.7047306851433, "stand_source": "synthetic", "forest_class": "softwood", "class_confidence": 0.845, "is_trusted": true, "valid_pixel_fraction": 0.7278077884382811, "requires_review": false, "change_type": "none", "validation_status": "stubbed", "period_end": "2026-08-31", "coverage_status": "retained", "map_class": "softwood", "colour_hex": "#1B7F4B"}, "geometry": {"type": "Polygon", "coordinates": [[[-66.78878624219865, 46.16349646116819], [-66.79874084905883, 46.180394708178355], [-66.81589118954207, 46.1796385241337], [-66.82979531608775, 46.166719776540624], [-66.81948740644883, 46.152041041285564], [-66.7983585094058, 46.15207646480142], [-66.78878624219865, 46.16349646116819]]]}}, {"type": "Feature", "properties": {"stand_id": "CEN-00023", "licence_block": "LB-E", "area_ha": 588.9658084429103, "stand_source": "synthetic", "forest_class": "softwood", "class_confidence": 0.851, "is_trusted": true, "valid_pixel_fraction": 0.6741758241758242, "requires_review": false, "change_type": "none", "validation_status": null, "period_end": "2026-08-31", "coverage_status": "retained", "map_class": "softwood", "colour_hex": "#1B7F4B"}, "geometry": {"type": "Polygon", "coordinates": [[[-66.75268190527186, 46.166190264969785], [-66.76511487508076, 46.17712610711656], [-66.7845772114666, 46.175663033820506], [-66.79318904877707, 46.16586254546119], [-66.78653121226375, 46.157338059661306], [-66.76231245801004, 46.151864438271396], [-66.75268190527186, 46.166190264969785]]]}}, {"type": "Feature", "properties": {"stand_id": "CEN-00024", "licence_block": "LB-C", "area_ha": 725.0919670434585, "stand_source": "synthetic", "forest_class": "softwood", "class_confidence": 0.569, "is_trusted": true, "valid_pixel_fraction": 0.6658221340970846, "requires_review": false, "change_type": "none", "validation_status": "stubbed", "period_end": "2026-08-31", "coverage_status": "retained", "map_class": "softwood", "colour_hex": "#1B7F4B"}, "geometry": {"type": "Polygon", "coordinates": [[[-66.6812917723567, 46.162884682233475], [-66.6928985963999, 46.1773621836155], [-66.70902809255138, 46.178054746020294], [-66.72739415906146, 46.16373973951305], [-66.71208944134915, 46.15047351488016], [-66.68911999584955, 46.15356631311044], [-66.6812917723567, 46.162884682233475]]]}}, {"type": "Feature", "properties": {"stand_id": "CEN-00025", "licence_block": "LB-B", "area_ha": 693.1601727114044, "stand_source": "synthetic", "forest_class": "softwood", "class_confidence": 0.669, "is_trusted": true, "valid_pixel_fraction": 0.6859291509994063, "requires_review": false, "change_type": "harvest", "validation_status": null, "period_end": "2026-08-31", "coverage_status": "retained", "map_class": "softwood", "colour_hex": "#1B7F4B"}, "geometry": {"type": "Polygon", "coordinates": [[[-66.60905592609305, 46.16473548338152], [-66.6230520412452, 46.17753484336916], [-66.63890929162947, 46.179599640436166], [-66.65130880873974, 46.164311087431656], [-66.64233350079886, 46.151651510528175], [-66.62098101764411, 46.152185580555795], [-66.60905592609305, 46.16473548338152]]]}}, {"type": "Feature", "properties": {"stand_id": "CEN-00026", "licence_block": "LB-C", "area_ha": 634.9264790259158, "stand_source": "synthetic", "forest_class": "softwood", "class_confidence": 0.747, "is_trusted": true, "valid_pixel_fraction": 0.7032066613517584, "requires_review": false, "change_type": "none", "validation_status": null, "period_end": "2026-08-31", "coverage_status": "retained", "map_class": "softwood", "colour_hex": "#1B7F4B"}, "geometry": {"type": "Polygon", "coordinates": [[[-66.57387886802837, 46.166847193207204], [-66.58457423431868, 46.176285638405034], [-66.60465731588297, 46.17867933966247], [-66.61510916271425, 46.16541103671571], [-66.60558342138017, 46.153147874407864], [-66.58428657030692, 46.154018362267465], [-66.57387886802837, 46.166847193207204]]]}}, {"type": "Feature", "properties": {"stand_id": "CEN-00027", "licence_block": "LB-B", "area_ha": 522.7509316770524, "stand_source": "synthetic", "forest_class": "mixedwood", "class_confidence": 0.45, "is_trusted": true, "valid_pixel_fraction": 0.7050479991370942, "requires_review": false, "change_type": "harvest", "validation_status": null, "period_end": "2026-08-31", "coverage_status": "retained", "map_class": "mixedwood", "colour_hex": "#7A9E3F"}, "geometry": {"type": "Polygon", "coordinates": [[[-66.46876536782321, 46.163271483941564], [-66.47257274037088, 46.1787297834121], [-66.49413500619477, 46.175330303882866], [-66.50163222981452, 46.164693083120405], [-66.49559373290359, 46.15249654634626], [-66.47657750760868, 46.15568899762644], [-66.46876536782321, 46.163271483941564]]]}}, {"type": "Feature", "properties": {"stand_id": "CEN-00028", "licence_block": "LB-E", "area_ha": 721.2291438342475, "stand_source": "synthetic", "forest_class": "softwood", "class_confidence": 0.623, "is_trusted": true, "valid_pixel_fraction": 0.6606109442531682, "requires_review": false, "change_type": "none", "validation_status": "stubbed", "period_end": "2026-08-31", "coverage_status": "retained", "map_class": "softwood", "colour_hex": "#1B7F4B"}, "geometry": {"type": "Polygon", "coordinates": [[[-66.42332289238533, 46.167285961789915], [-66.43661215805106, 46.17876114362286], [-66.46031906579061, 46.17513816235907], [-66.47185756749352, 46.164741186834746], [-66.45821276934082, 46.154205282640525], [-66.43710338973395, 46.152402620153914], [-66.42332289238533, 46.167285961789915]]]}}, {"type": "Feature", "properties": {"stand_id": "CEN-00029", "licence_block": "LB-F", "area_ha": 526.3018221846983, "stand_source": "synthetic", "forest_class": "softwood", "class_confidence": 0.722, "is_trusted": true, "valid_pixel_fraction": 0.6763103802672148, "requires_review": false, "change_type": "none", "validation_status": null, "period_end": "2026-08-31", "coverage_status": "retained", "map_class": "softwood", "colour_hex": "#1B7F4B"}, "geometry": {"type": "Polygon", "coordinates": [[[-66.84949881601439, 46.183654188314605], [-66.85549295843599, 46.19471232440967], [-66.87135211916537, 46.19761619837394], [-66.88576190368858, 46.18727432512634], [-66.87519735185968, 46.175161110524776], [-66.85468087642994, 46.17257992973405], [-66.84949881601439, 46.183654188314605]]]}}, {"type": "Feature", "properties": {"stand_id": "CEN-00030", "licence_block": "LB-C", "area_ha": 649.3234087619767, "stand_source": "synthetic", "forest_class": "softwood", "class_confidence": 0.821, "is_trusted": true, "valid_pixel_fraction": 0.6932051282051283, "requires_review": false, "change_type": "none", "validation_status": null, "period_end": "2026-08-31", "coverage_status": "retained", "map_class": "softwood", "colour_hex": "#1B7F4B"}, "geometry": {"type": "Polygon", "coordinates": [[[-66.8106018494244, 46.18421714548206], [-66.81066155735984, 46.19964363883014], [-66.83548783878426, 46.196606316437276], [-66.85096993603153, 46.18655876079509], [-66.83664318699999, 46.175204391238815], [-66.81482570264397, 46.17262855419511], [-66.8106018494244, 46.18421714548206]]]}}, {"type": "Feature", "properties": {"stand_id": "CEN-00091", "licence_block": "LB-F", "area_ha": 713.3515837213301, "stand_source": "synthetic", "forest_class": "regenerating", "class_confidence": 0.547, "is_trusted": true, "valid_pixel_fraction": 0.6840006135910416, "requires_review": false, "change_type": "harvest", "validation_status": "stubbed", "period_end": "2026-08-31", "coverage_status": "retained", "map_class": "regenerating", "colour_hex": "#9DD08A"}, "geometry": {"type": "Polygon", "coordinates": [[[-66.51722774280331, 46.31878101704247], [-66.532612147004, 46.33013080674695], [-66.55023010410486, 46.332941643514104], [-66.55981578024799, 46.31677204094801], [-66.55164120655351, 46.304248889320675], [-66.53119192211989, 46.30443089906477], [-66.51722774280331, 46.31878101704247]]]}}, {"type": "Feature", "properties": {"stand_id": "CEN-00092", "licence_block": "LB-F", "area_ha": 680.8441185515835, "stand_source": "synthetic", "forest_class": "softwood", "class_confidence": 0.611, "is_trusted": true, "valid_pixel_fraction": 0.6540382694228848, "requires_review": false, "change_type": "none", "validation_status": null, "period_end": "2026-08-31", "coverage_status": "retained", "map_class": "softwood", "colour_hex": "#1B7F4B"}, "geometry": {"type": "Polygon", "coordinates": [[[-66.48079785049455, 46.31683634583771], [-66.49516280010272, 46.32849983898898], [-66.51560197776003, 46.33055141066286], [-66.52479303703811, 46.32019865109003], [-66.51451117623195, 46.3028670802752], [-66.49279320784107, 46.306895566076975], [-66.48079785049455, 46.31683634583771]]]}}, {"type": "Feature", "properties": {"stand_id": "CEN-00093", "licence_block": "LB-D", "area_ha": 651.0570547252878, "stand_source": "synthetic", "forest_class": "softwood", "class_confidence": 0.89, "is_trusted": true, "valid_pixel_fraction": 0.7746204007806178, "requires_review": false, "change_type": "harvest", "validation_status": null, "period_end": "2026-08-31", "coverage_status": "retained", "map_class": "softwood", "colour_hex": "#1B7F4B"}, "geometry": {"type": "Polygon", "coordinates": [[[-66.82702048514459, 46.33866834159628], [-66.83279568785413, 46.35090788896926], [-66.85595028042042, 46.35068118874959], [-66.86578356911413, 46.33790433278176], [-66.85757237420167, 46.326073122834785], [-66.83603435643691, 46.32564338024938], [-66.82702048514459, 46.33866834159628]]]}}, {"type": "Feature", "properties": {"stand_id": "CEN-00094", "licence_block": "LB-C", "area_ha": 671.8167435254084, "stand_source": "synthetic", "forest_class": "softwood", "class_confidence": 0.798, "is_trusted": true, "valid_pixel_fraction": 0.7517006802721088, "requires_review": false, "change_type": "none", "validation_status": null, "period_end": "2026-08-31", "coverage_status": "retained", "map_class": "softwood", "colour_hex": "#1B7F4B"}, "geometry": {"type": "Polygon", "coordinates": [[[-66.79497916594694, 46.33764540040881], [-66.8015587967405, 46.34895080510667], [-66.82060622003871, 46.35082899783905], [-66.83303087471526, 46.33677775095343], [-66.82424509136298, 46.32352226143386], [-66.79742132215958, 46.325144743777244], [-66.79497916594694, 46.33764540040881]]]}}, {"type": "Feature", "properties": {"stand_id": "CEN-00095", "licence_block": "LB-C", "area_ha": 610.2999121624064, "stand_source": "synthetic", "forest_class": "softwood", "class_confidence": 0.796, "is_trusted": true, "valid_pixel_fraction": 0.7366872467682809, "requires_review": false, "change_type": "none", "validation_status": null, "period_end": "2026-08-31", "coverage_status": "retained", "map_class": "softwood", "colour_hex": "#1B7F4B"}, "geometry": {"type": "Polygon", "coordinates": [[[-66.71892011963581, 46.3375304679394], [-66.72995972918615, 46.35175534836792], [-66.75142444017786, 46.34964042906779], [-66.75584688800713, 46.33765647793069], [-66.74783596066469, 46.32661583887491], [-66.7283285701116, 46.325400902844756], [-66.71892011963581, 46.3375304679394]]]}}, {"type": "Feature", "properties": {"stand_id": "CEN-00096", "licence_block": "LB-F", "area_ha": 543.9527554838774, "stand_source": "synthetic", "forest_class": "softwood", "class_confidence": 0.831, "is_trusted": true, "valid_pixel_fraction": 0.6915445665445665, "requires_review": false, "change_type": "none", "validation_status": null, "period_end": "2026-08-31", "coverage_status": "retained", "map_class": "softwood", "colour_hex": "#1B7F4B"}, "geometry": {"type": "Polygon", "coordinates": [[[-66.64588274598458, 46.34061430330753], [-66.65783349408872, 46.34938044412417], [-66.67904186973796, 46.34996130720475], [-66.68667890456364, 46.341565111819314], [-66.67579648414394, 46.32919924086193], [-66.65941683935955, 46.32714036343609], [-66.64588274598458, 46.34061430330753]]]}}, {"type": "Feature", "properties": {"stand_id": "CEN-00097", "licence_block": "LB-D", "area_ha": 746.0495223174504, "stand_source": "synthetic", "forest_class": "softwood", "class_confidence": 0.685, "is_trusted": true, "valid_pixel_fraction": 0.7676954732510288, "requires_review": false, "change_type": "none", "validation_status": "stubbed", "period_end": "2026-08-31", "coverage_status": "retained", "map_class": "softwood", "colour_hex": "#1B7F4B"}, "geometry": {"type": "Polygon", "coordinates": [[[-66.60974355191765, 46.339405027522474], [-66.61833828987119, 46.352147883780184], [-66.6452111343797, 46.35367827802004], [-66.64857928582232, 46.33798323290068], [-66.63865773011933, 46.32447147562461], [-66.61708376994498, 46.32624257436077], [-66.60974355191765, 46.339405027522474]]]}}, {"type": "Feature", "properties": {"stand_id": "CEN-00098", "licence_block": "LB-A", "area_ha": 581.7306773499434, "stand_source": "synthetic", "forest_class": "softwood", "class_confidence": 0.557, "is_trusted": true, "valid_pixel_fraction": 0.6914266704685866, "requires_review": false, "change_type": "harvest", "validation_status": null, "period_end": "2026-08-31", "coverage_status": "retained", "map_class": "softwood", "colour_hex": "#1B7F4B"}, "geometry": {"type": "Polygon", "coordinates": [[[-66.53669974275984, 46.33841921575659], [-66.54763011060012, 46.34954833196993], [-66.56871928601088, 46.350308391011595], [-66.58008708954681, 46.338017688841795], [-66.56749100051243, 46.32849138737243], [-66.55096783861939, 46.32776923488929], [-66.53669974275984, 46.33841921575659]]]}}, {"type": "Feature", "properties": {"stand_id": "CEN-00099", "licence_block": "LB-F", "area_ha": 654.5144604438433, "stand_source": "synthetic", "forest_class": "softwood", "class_confidence": 0.64, "is_trusted": true, "valid_pixel_fraction": 0.6899139821217743, "requires_review": false, "change_type": "none", "validation_status": null, "period_end": "2026-08-31", "coverage_status": "retained", "map_class": "softwood", "colour_hex": "#1B7F4B"}, "geometry": {"type": "Polygon", "coordinates": [[[-66.46455472886497, 46.33938260536785], [-66.47682633903075, 46.35076697942934], [-66.49459099294978, 46.35410682031191], [-66.50470316554345, 46.34291281702176], [-66.49738751057846, 46.32636661238952], [-66.47756337555933, 46.32676210674982], [-66.46455472886497, 46.33938260536785]]]}}, {"type": "Feature", "properties": {"stand_id": "CEN-00100", "licence_block": "LB-A", "area_ha": 688.3474366792071, "stand_source": "synthetic", "forest_class": "softwood", "class_confidence": 0.647, "is_trusted": true, "valid_pixel_fraction": 0.6816345925397956, "requires_review": false, "change_type": "harvest", "validation_status": null, "period_end": "2026-08-31", "coverage_status": "retained", "map_class": "softwood", "colour_hex": "#1B7F4B"}, "geometry": {"type": "Polygon", "coordinates": [[[-66.77120906102935, 46.3599828931013], [-66.7855045011007, 46.37271049569232], [-66.80199015851886, 46.37111764839823], [-66.81906385485628, 46.36289574694606], [-66.80638381047329, 46.34781152284295], [-66.78344965157281, 46.34867224161357], [-66.77120906102935, 46.3599828931013]]]}}, {"type": "Feature", "properties": {"stand_id": "CEN-00101", "licence_block": "LB-D", "area_ha": 697.5625266221084, "stand_source": "synthetic", "forest_class": "softwood", "class_confidence": 0.902, "is_trusted": true, "valid_pixel_fraction": 0.7225950782997763, "requires_review": true, "change_type": "disturbance", "validation_status": "stubbed", "period_end": "2026-08-31", "coverage_status": "retained", "map_class": "softwood", "colour_hex": "#1B7F4B"}, "geometry": {"type": "Polygon", "coordinates": [[[-66.73781272872334, 46.36160175809182], [-66.74692495495714, 46.37473628169818], [-66.76775062056797, 46.37379345062881], [-66.77992259378635, 46.362329954111104], [-66.76773432125644, 46.34945721562799], [-66.7449302531096, 46.34787645230846], [-66.73781272872334, 46.36160175809182]]]}}, {"type": "Feature", "properties": {"stand_id": "CEN-00102", "licence_block": "LB-F", "area_ha": 675.277771511465, "stand_source": "synthetic", "forest_class": "softwood", "class_confidence": 0.794, "is_trusted": true, "valid_pixel_fraction": 0.696358612726298, "requires_review": false, "change_type": "harvest", "validation_status": null, "period_end": "2026-08-31", "coverage_status": "retained", "map_class": "softwood", "colour_hex": "#1B7F4B"}, "geometry": {"type": "Polygon", "coordinates": [[[-66.69784799800539, 46.35999338808051], [-66.71261309880981, 46.373222156173675], [-66.73141422316414, 46.371424939904614], [-66.74379946265542, 46.359687700611644], [-66.73434705977812, 46.34852483731158], [-66.71053018573839, 46.349094427942006], [-66.69784799800539, 46.35999338808051]]]}}, {"type": "Feature", "properties": {"stand_id": "CEN-00103", "licence_block": "LB-B", "area_ha": 667.5234649669434, "stand_source": "synthetic", "forest_class": "softwood", "class_confidence": 0.74, "is_trusted": true, "valid_pixel_fraction": 0.773747680890538, "requires_review": false, "change_type": "none", "validation_status": null, "period_end": "2026-08-31", "coverage_status": "retained", "map_class": "softwood", "colour_hex": "#1B7F4B"}, "geometry": {"type": "Polygon", "coordinates": [[[-66.63055863844863, 46.35983865437983], [-66.6361568452522, 46.371998473435795], [-66.65944050481377, 46.372087604422966], [-66.67065185314691, 46.35971005452857], [-66.66009169987154, 46.346885229325515], [-66.63869748990139, 46.34719850907946], [-66.63055863844863, 46.35983865437983]]]}}, {"type": "Feature", "properties": {"stand_id": "CEN-00104", "licence_block": "LB-D", "area_ha": 726.3508993743848, "stand_source": "synthetic", "forest_class": "softwood", "class_confidence": 0.549, "is_trusted": true, "valid_pixel_fraction": 0.6600196142530239, "requires_review": true, "change_type": "disturbance", "validation_status": "stubbed", "period_end": "2026-08-31", "coverage_status": "retained", "map_class": "softwood", "colour_hex": "#1B7F4B"}, "geometry": {"type": "Polygon", "coordinates": [[[-66.5939302990388, 46.36321964609661], [-66.60569451463532, 46.37673772177251], [-66.62522902000794, 46.37358608225283], [-66.6356594452699, 46.359153010029544], [-66.6246483049103, 46.345898106387516], [-66.6040935101989, 46.34968978179248], [-66.5939302990388, 46.36321964609661]]]}}, {"type": "Feature", "properties": {"stand_id": "CEN-00105", "licence_block": "LB-C", "area_ha": 659.353540884719, "stand_source": "synthetic", "forest_class": "softwood", "class_confidence": 0.661, "is_trusted": true, "valid_pixel_fraction": 0.6991424690100186, "requires_review": false, "change_type": "none", "validation_status": null, "period_end": "2026-08-31", "coverage_status": "retained", "map_class": "softwood", "colour_hex": "#1B7F4B"}, "geometry": {"type": "Polygon", "coordinates": [[[-66.55495450526944, 46.36209340009596], [-66.567775909754, 46.37312880843955], [-66.58652446807584, 46.374371759613304], [-66.59426961383966, 46.36175492012384], [-66.58559291891471, 46.348254301440136], [-66.56650020071878, 46.346312793436994], [-66.55495450526944, 46.36209340009596]]]}}]}
